{"type":"FeatureCollection","features":[{"type":"Feature","id":"route-truck-01","properties":{"truckId":"truck-01","waypointDistancesKm":[0,1.6256,4.4941,7.686400000000001,11.6052]},"geometry":{"coordinates":[[-64.188709,-31.420103],[-64.188216,-31.421509],[-64.185253,-31.422438],[-64.181724,-31.414065],[-64.180387,-31.414464],[-64.180524,-31.414793],[-64.181353,-31.416789],[-64.179989,-31.417196],[-64.176286,-31.408226],[-64.174237,-31.405655],[-64.168255,-31.40397],[-64.167456,-31.406138],[-64.16863,-31.406438],[-64.168684,-31.406164],[-64.168453,-31.405875],[-64.167899,-31.405703],[-64.16779,-31.405674],[-64.168453,-31.405875],[-64.168684,-31.406164],[-64.16863,-31.406438],[-64.169868,-31.406754],[-64.1664,-31.41614],[-64.163078,-31.416819],[-64.160054,-31.418661],[-64.159283,-31.417669],[-64.158453,-31.418098],[-64.157267,-31.418201],[-64.157836,-31.420075],[-64.158066,-31.422477],[-64.155562,-31.42272],[-64.155455,-31.421895],[-64.155412,-31.421566],[-64.154171,-31.421683],[-64.154314,-31.42284],[-64.159969,-31.422286],[-64.161429,-31.422517],[-64.164408,-31.422618],[-64.1646,-31.42283],[-64.164735,-31.424011],[-64.167428,-31.423957],[-64.168851,-31.424755],[-64.1693,-31.425244],[-64.171127,-31.4249],[-64.171996,-31.424593],[-64.173234,-31.423937],[-64.174027,-31.423307],[-64.174679,-31.423753],[-64.175179,-31.423878],[-64.175825,-31.423407],[-64.188709,-31.420103]],"type":"LineString"}},{"type":"Feature","id":"route-truck-02","properties":{"truckId":"truck-02","waypointDistancesKm":[0,3.6593,6.363700000000001,8.9956,14.782]},"geometry":{"coordinates":[[-64.188709,-31.420103],[-64.188216,-31.421509],[-64.185253,-31.422438],[-64.184705,-31.421154],[-64.199394,-31.417167],[-64.196651,-31.409598],[-64.203382,-31.407645],[-64.203305,-31.407467],[-64.202932,-31.406602],[-64.207747,-31.405166],[-64.210237,-31.411285],[-64.216435,-31.409315],[-64.217702,-31.414209],[-64.219749,-31.413991],[-64.21992,-31.414685],[-64.220584,-31.414554],[-64.225001,-31.431134],[-64.229657,-31.431459],[-64.229294,-31.430063],[-64.229195,-31.429684],[-64.229984,-31.429526],[-64.228554,-31.424112],[-64.208649,-31.427984],[-64.207553,-31.427731],[-64.204201,-31.428531],[-64.200024,-31.428863],[-64.197892,-31.428419],[-64.194509,-31.426863],[-64.192698,-31.422564],[-64.19041,-31.420877],[-64.189089,-31.417076],[-64.187673,-31.417469],[-64.188709,-31.420103]],"type":"LineString"}},{"type":"Feature","id":"route-truck-03","properties":{"truckId":"truck-03","waypointDistancesKm":[0,2.363,5.2558,7.9885,11.7151]},"geometry":{"coordinates":[[-64.188709,-31.420103],[-64.187225,-31.42354],[-64.190402,-31.431119],[-64.193625,-31.432571],[-64.194653,-31.432682],[-64.194523,-31.433838],[-64.196279,-31.437775],[-64.198752,-31.443971],[-64.193522,-31.44331],[-64.193988,-31.445848],[-64.189947,-31.446652],[-64.181191,-31.446662],[-64.181192,-31.448],[-64.181192,-31.44929],[-64.18028,-31.449287],[-64.18027,-31.446665],[-64.176631,-31.446676],[-64.176706,-31.441312],[-64.168808,-31.440406],[-64.168798,-31.44001],[-64.164963,-31.440181],[-64.164956,-31.439401],[-64.164953,-31.439099],[-64.16591,-31.439099],[-64.16591,-31.438123],[-64.168796,-31.438123],[-64.168815,-31.431836],[-64.169725,-31.431563],[-64.169684,-31.429259],[-64.171112,-31.428201],[-64.175607,-31.423637],[-64.188709,-31.420103]],"type":"LineString"}},{"type":"Feature","id":"route-truck-04","properties":{"truckId":"truck-04","waypointDistancesKm":[0,5.099,8.4977,12.2108,19.257800000000003]},"geometry":{"coordinates":[[-64.188709,-31.420103],[-64.188734,-31.420338],[-64.176787,-31.423339],[-64.176291,-31.422122],[-64.175155,-31.421323],[-64.175779,-31.419509],[-64.175568,-31.418555],[-64.173588,-31.418448],[-64.172427,-31.417796],[-64.163987,-31.4155],[-64.157623,-31.416712],[-64.156588,-31.415737],[-64.148012,-31.413366],[-64.148108,-31.412499],[-64.145249,-31.412112],[-64.145812,-31.411206],[-64.145994,-31.41068],[-64.14518,-31.410555],[-64.145067,-31.411064],[-64.142429,-31.410807],[-64.136148,-31.41147],[-64.137943,-31.423694],[-64.138829,-31.424725],[-64.138626,-31.425367],[-64.13709,-31.425526],[-64.137883,-31.429564],[-64.137111,-31.429523],[-64.137243,-31.429988],[-64.137936,-31.431752],[-64.139202,-31.431671],[-64.140354,-31.432565],[-64.141926,-31.432915],[-64.141962,-31.433176],[-64.140826,-31.433216],[-64.141498,-31.434584],[-64.141529,-31.436009],[-64.143456,-31.437076],[-64.145411,-31.439012],[-64.148403,-31.441225],[-64.148712,-31.441939],[-64.148337,-31.453057],[-64.151636,-31.453037],[-64.151668,-31.452202],[-64.151704,-31.451241],[-64.149524,-31.45119],[-64.149081,-31.45239],[-64.149492,-31.452482],[-64.149475,-31.453151],[-64.148228,-31.453155],[-64.148487,-31.442035],[-64.151225,-31.441129],[-64.153795,-31.440669],[-64.160654,-31.440541],[-64.163923,-31.438002],[-64.163898,-31.431656],[-64.167464,-31.430679],[-64.169571,-31.429668],[-64.175856,-31.423478],[-64.188709,-31.420103]],"type":"LineString"}},{"type":"Feature","id":"route-truck-05","properties":{"truckId":"truck-05","waypointDistancesKm":[0,5.6128,8.0776,14.884900000000002,22.334400000000002]},"geometry":{"coordinates":[[-64.188709,-31.420103],[-64.188216,-31.421509],[-64.186582,-31.422025],[-64.187051,-31.423184],[-64.192042,-31.421714],[-64.192669,-31.422089],[-64.195305,-31.427805],[-64.198077,-31.430196],[-64.198659,-31.431396],[-64.200684,-31.431881],[-64.201132,-31.433807],[-64.202098,-31.434612],[-64.203247,-31.434883],[-64.203643,-31.436434],[-64.205886,-31.436928],[-64.207531,-31.438837],[-64.209329,-31.445164],[-64.211296,-31.445404],[-64.212562,-31.449739],[-64.207151,-31.450791],[-64.207349,-31.45153],[-64.212479,-31.450671],[-64.211118,-31.445382],[-64.214248,-31.445749],[-64.214949,-31.445444],[-64.215273,-31.445927],[-64.21644,-31.446074],[-64.217924,-31.445675],[-64.221454,-31.446328],[-64.221512,-31.445815],[-64.222975,-31.446019],[-64.222008,-31.445947],[-64.221512,-31.445815],[-64.221454,-31.446328],[-64.217924,-31.445675],[-64.216589,-31.445964],[-64.216505,-31.440749],[-64.215276,-31.440679],[-64.215019,-31.436647],[-64.215248,-31.433894],[-64.216241,-31.433264],[-64.216397,-31.430517],[-64.219517,-31.430748],[-64.218287,-31.426102],[-64.233683,-31.423082],[-64.230868,-31.41252],[-64.237065,-31.41135],[-64.236813,-31.410349],[-64.235875,-31.410531],[-64.234994,-31.410696],[-64.234839,-31.41026],[-64.230564,-31.411384],[-64.233683,-31.423082],[-64.208649,-31.427984],[-64.207553,-31.427731],[-64.204201,-31.428531],[-64.199805,-31.428859],[-64.197381,-31.42827],[-64.194509,-31.426863],[-64.192698,-31.422564],[-64.19041,-31.420877],[-64.189089,-31.417076],[-64.187673,-31.417469],[-64.188709,-31.420103]],"type":"LineString"}}]}
