{"type":"FeatureCollection","features":[{"type":"Feature","id":"route-calibrated-01","properties":{"truckId":"vehicle-01","waypointDistancesKm":[0,5.362448937971497,6.227814030822845,8.134482416177653,10.47932254243029,12.111585716337851,13.483740947571118,20.565464925016194]},"geometry":{"type":"LineString","coordinates":[[-64.188709,-31.420109],[-64.18871,-31.420127],[-64.188717,-31.420178],[-64.188727,-31.42023],[-64.188737,-31.420284],[-64.188734,-31.420338],[-64.188686,-31.420476],[-64.188614,-31.420637],[-64.188602,-31.420666],[-64.188216,-31.421509],[-64.188139,-31.421536],[-64.187971,-31.421596],[-64.187883,-31.421621],[-64.186582,-31.422025],[-64.185253,-31.422438],[-64.184746,-31.421253],[-64.184705,-31.421154],[-64.186053,-31.420801],[-64.186264,-31.420749],[-64.187394,-31.420469],[-64.187439,-31.420456],[-64.187877,-31.420332],[-64.188038,-31.420286],[-64.188169,-31.420245],[-64.188208,-31.420233],[-64.188297,-31.420206],[-64.188431,-31.42015],[-64.188553,-31.4201],[-64.188617,-31.420073],[-64.188664,-31.420053],[-64.188709,-31.420032],[-64.188747,-31.420017],[-64.188791,-31.420004],[-64.188816,-31.419999],[-64.188834,-31.419994],[-64.188873,-31.419986],[-64.188977,-31.419966],[-64.18928,-31.419934],[-64.189473,-31.419896],[-64.189832,-31.419802],[-64.189976,-31.419802],[-64.190263,-31.419718],[-64.191479,-31.419398],[-64.19279,-31.419035],[-64.194047,-31.418698],[-64.195343,-31.418339],[-64.195893,-31.418187],[-64.196665,-31.417972],[-64.197822,-31.417657],[-64.197979,-31.417614],[-64.198433,-31.417486],[-64.198706,-31.4174],[-64.199394,-31.417167],[-64.199011,-31.416135],[-64.198747,-31.415458],[-64.200171,-31.41501],[-64.200379,-31.414934],[-64.200595,-31.414855],[-64.200785,-31.414786],[-64.201238,-31.41462],[-64.201309,-31.414594],[-64.20166,-31.414447],[-64.201915,-31.414321],[-64.202329,-31.414024],[-64.202467,-31.413937],[-64.202634,-31.413831],[-64.202744,-31.413763],[-64.202838,-31.413716],[-64.202958,-31.413661],[-64.20311,-31.413612],[-64.203323,-31.413539],[-64.203587,-31.413427],[-64.203819,-31.413326],[-64.204533,-31.413083],[-64.204631,-31.41305],[-64.205483,-31.412763],[-64.206108,-31.412562],[-64.206249,-31.41252],[-64.206683,-31.412388],[-64.207997,-31.411991],[-64.209113,-31.41165],[-64.210237,-31.411285],[-64.211359,-31.41092],[-64.211834,-31.410775],[-64.21251,-31.410559],[-64.21308,-31.410378],[-64.213644,-31.4102],[-64.214063,-31.410065],[-64.214762,-31.409847],[-64.215897,-31.409486],[-64.216435,-31.409315],[-64.217023,-31.409127],[-64.218151,-31.408765],[-64.218411,-31.408683],[-64.219297,-31.40839],[-64.219357,-31.40837],[-64.220444,-31.408009],[-64.220581,-31.407967],[-64.221485,-31.407691],[-64.221551,-31.407671],[-64.221623,-31.407647],[-64.222622,-31.407325],[-64.222701,-31.4073],[-64.222661,-31.407245],[-64.22227,-31.406294],[-64.222055,-31.405821],[-64.221839,-31.405348],[-64.221418,-31.404373],[-64.221034,-31.403406],[-64.220614,-31.402418],[-64.220117,-31.402576],[-64.219464,-31.402784],[-64.21988,-31.403771],[-64.221034,-31.403406],[-64.222161,-31.40305],[-64.221738,-31.40206],[-64.221708,-31.401988],[-64.22123,-31.40088],[-64.222337,-31.400526],[-64.222637,-31.401223],[-64.222808,-31.401621],[-64.223958,-31.401244],[-64.224141,-31.401188],[-64.224425,-31.401101],[-64.224871,-31.400964],[-64.225119,-31.400888],[-64.225204,-31.400862],[-64.225255,-31.400846],[-64.226545,-31.400426],[-64.2266,-31.400408],[-64.226881,-31.400319],[-64.22766,-31.400072],[-64.22833,-31.399859],[-64.229165,-31.399591],[-64.229486,-31.39949],[-64.229634,-31.399442],[-64.229939,-31.399344],[-64.230454,-31.399176],[-64.230658,-31.399109],[-64.231527,-31.398848],[-64.232862,-31.398413],[-64.233231,-31.398293],[-64.233296,-31.398272],[-64.233741,-31.398127],[-64.233747,-31.398225],[-64.233362,-31.398347],[-64.232188,-31.398718],[-64.231477,-31.398964],[-64.230682,-31.399205],[-64.230933,-31.400151],[-64.231306,-31.401549],[-64.230854,-31.402006],[-64.230808,-31.402026],[-64.230701,-31.402042],[-64.229857,-31.402143],[-64.228204,-31.40234],[-64.227215,-31.402559],[-64.226176,-31.402787],[-64.226099,-31.402811],[-64.226058,-31.402854],[-64.225981,-31.402935],[-64.225581,-31.401969],[-64.225154,-31.400968],[-64.225119,-31.400888],[-64.225045,-31.400729],[-64.225004,-31.400626],[-64.224639,-31.399796],[-64.224218,-31.398837],[-64.223786,-31.397844],[-64.223387,-31.396894],[-64.223289,-31.396653],[-64.22311,-31.396221],[-64.222975,-31.395906],[-64.222941,-31.395701],[-64.22278,-31.395315],[-64.222375,-31.3944],[-64.222354,-31.394361],[-64.222324,-31.394321],[-64.222279,-31.394278],[-64.220933,-31.393178],[-64.220877,-31.393125],[-64.22084,-31.393079],[-64.220453,-31.392428],[-64.22032,-31.392204],[-64.220058,-31.391763],[-64.219787,-31.391294],[-64.219489,-31.390826],[-64.219455,-31.390782],[-64.218999,-31.390327],[-64.217765,-31.39101],[-64.217667,-31.391071],[-64.217629,-31.391108],[-64.217597,-31.391145],[-64.217225,-31.391628],[-64.216409,-31.391233],[-64.21599,-31.391025],[-64.216254,-31.390872],[-64.216799,-31.390556],[-64.217141,-31.390755],[-64.217251,-31.39082],[-64.217667,-31.391071],[-64.218191,-31.391421],[-64.219267,-31.3921],[-64.219423,-31.392033],[-64.219508,-31.391997],[-64.220058,-31.391763],[-64.22032,-31.392204],[-64.220453,-31.392428],[-64.22084,-31.393079],[-64.220877,-31.393125],[-64.220933,-31.393178],[-64.222279,-31.394278],[-64.222324,-31.394321],[-64.222354,-31.394361],[-64.222375,-31.3944],[-64.22278,-31.395315],[-64.222941,-31.395701],[-64.223078,-31.395853],[-64.223226,-31.396176],[-64.223649,-31.396022],[-64.223808,-31.395958],[-64.223893,-31.395917],[-64.224047,-31.395849],[-64.224289,-31.395736],[-64.22428,-31.395677],[-64.224268,-31.395639],[-64.223896,-31.39482],[-64.224241,-31.394701],[-64.224588,-31.394573],[-64.224902,-31.394441],[-64.225207,-31.394285],[-64.22568,-31.394058],[-64.225873,-31.393981],[-64.226054,-31.393931],[-64.226293,-31.393863],[-64.226452,-31.393821],[-64.226569,-31.393784],[-64.226985,-31.393606],[-64.227159,-31.394171],[-64.227211,-31.39434],[-64.22739,-31.394947],[-64.226384,-31.395158],[-64.226343,-31.395174],[-64.226322,-31.395189],[-64.226275,-31.39526],[-64.226229,-31.395331],[-64.226193,-31.395365],[-64.226134,-31.39539],[-64.226082,-31.395409],[-64.225464,-31.395506],[-64.225197,-31.395543],[-64.224651,-31.395629],[-64.224508,-31.39566],[-64.224289,-31.395736],[-64.224047,-31.395849],[-64.223893,-31.395917],[-64.223808,-31.395958],[-64.223649,-31.396022],[-64.223226,-31.396176],[-64.223184,-31.39619],[-64.22311,-31.396221],[-64.222975,-31.395906],[-64.222941,-31.395701],[-64.22278,-31.395315],[-64.222375,-31.3944],[-64.222354,-31.394361],[-64.222324,-31.394321],[-64.222279,-31.394278],[-64.220933,-31.393178],[-64.220877,-31.393125],[-64.22084,-31.393079],[-64.220453,-31.392428],[-64.22032,-31.392204],[-64.220058,-31.391763],[-64.220624,-31.391522],[-64.221162,-31.391292],[-64.221673,-31.392073],[-64.221743,-31.392189],[-64.221994,-31.392075],[-64.222895,-31.391666],[-64.222338,-31.390774],[-64.222031,-31.390325],[-64.220938,-31.390793],[-64.219787,-31.391294],[-64.219489,-31.390826],[-64.219455,-31.390782],[-64.218999,-31.390327],[-64.218597,-31.389939],[-64.2181,-31.389542],[-64.217386,-31.38897],[-64.217314,-31.388914],[-64.2165,-31.388296],[-64.216454,-31.388181],[-64.216342,-31.38803],[-64.216306,-31.387961],[-64.215832,-31.386854],[-64.215168,-31.387067],[-64.214548,-31.387272],[-64.213892,-31.387491],[-64.212616,-31.387893],[-64.211338,-31.388313],[-64.210587,-31.388547],[-64.210047,-31.388712],[-64.209714,-31.388813],[-64.20877,-31.389108],[-64.208122,-31.389314],[-64.20746,-31.389525],[-64.207015,-31.389666],[-64.206794,-31.389736],[-64.206182,-31.389931],[-64.205798,-31.390053],[-64.20492,-31.390338],[-64.204655,-31.390417],[-64.204262,-31.390542],[-64.204032,-31.390694],[-64.20392,-31.390788],[-64.203823,-31.390905],[-64.203703,-31.391098],[-64.203397,-31.391672],[-64.203074,-31.392275],[-64.202969,-31.392469],[-64.202783,-31.392811],[-64.202737,-31.392895],[-64.20271,-31.392944],[-64.202577,-31.393181],[-64.201799,-31.394593],[-64.202403,-31.394832],[-64.202331,-31.39499],[-64.202281,-31.395122],[-64.202248,-31.39524],[-64.202099,-31.395859],[-64.202074,-31.395972],[-64.20201,-31.396537],[-64.202009,-31.39659],[-64.202008,-31.396668],[-64.202018,-31.396767],[-64.202088,-31.39747],[-64.202115,-31.397632],[-64.202169,-31.397822],[-64.202193,-31.397891],[-64.202227,-31.397968],[-64.202278,-31.398054],[-64.202321,-31.398119],[-64.202388,-31.398204],[-64.202576,-31.398404],[-64.202657,-31.398482],[-64.202754,-31.398548],[-64.202867,-31.398624],[-64.202938,-31.398678],[-64.20304,-31.398771],[-64.203254,-31.39902],[-64.203455,-31.399256],[-64.203561,-31.399402],[-64.20362,-31.399487],[-64.203656,-31.399572],[-64.203683,-31.399643],[-64.203772,-31.40015],[-64.203783,-31.40112],[-64.203769,-31.401226],[-64.203748,-31.401338],[-64.203635,-31.401789],[-64.203603,-31.40189],[-64.203565,-31.401993],[-64.203508,-31.402115],[-64.203388,-31.40232],[-64.203241,-31.402545],[-64.203008,-31.402831],[-64.202808,-31.403024],[-64.202543,-31.403247],[-64.202238,-31.403444],[-64.201903,-31.403647],[-64.201657,-31.403772],[-64.200544,-31.404137],[-64.199585,-31.404431],[-64.197753,-31.404977],[-64.197596,-31.405024],[-64.196823,-31.405211],[-64.195498,-31.40545],[-64.194805,-31.405555],[-64.194195,-31.405628],[-64.193599,-31.405724],[-64.193059,-31.4058],[-64.192812,-31.405821],[-64.192707,-31.405825],[-64.192555,-31.405818],[-64.191211,-31.405718],[-64.190902,-31.405716],[-64.190401,-31.405748],[-64.19028,-31.405759],[-64.190147,-31.405779],[-64.189804,-31.405855],[-64.189559,-31.405922],[-64.189465,-31.405961],[-64.189352,-31.406035],[-64.189317,-31.406076],[-64.189274,-31.406141],[-64.189237,-31.406218],[-64.189218,-31.406307],[-64.189225,-31.406398],[-64.189263,-31.406522],[-64.189301,-31.406579],[-64.189359,-31.406632],[-64.189657,-31.406902],[-64.189736,-31.406978],[-64.189813,-31.407055],[-64.189859,-31.40711],[-64.189904,-31.40718],[-64.189942,-31.407251],[-64.189979,-31.407335],[-64.190016,-31.407553],[-64.190031,-31.407679],[-64.190043,-31.407759],[-64.190467,-31.40897],[-64.190904,-31.410127],[-64.191328,-31.411203],[-64.191516,-31.411587],[-64.191631,-31.411801],[-64.191676,-31.411898],[-64.191721,-31.412009],[-64.191795,-31.412224],[-64.191861,-31.412443],[-64.191886,-31.412605],[-64.191905,-31.412812],[-64.191899,-31.412906],[-64.191783,-31.413258],[-64.191709,-31.413482],[-64.191618,-31.413773],[-64.191161,-31.41514],[-64.190694,-31.416604],[-64.190416,-31.416687],[-64.189089,-31.417076],[-64.189049,-31.417087],[-64.18777,-31.417441],[-64.187673,-31.417469],[-64.18769,-31.41751],[-64.188184,-31.418665],[-64.188568,-31.419564],[-64.188701,-31.419841],[-64.188713,-31.419861],[-64.188728,-31.419891],[-64.188735,-31.419927],[-64.188737,-31.419959],[-64.188733,-31.419976],[-64.188728,-31.419991],[-64.188709,-31.420032],[-64.188708,-31.420086],[-64.188709,-31.420103]]}},{"type":"Feature","id":"route-calibrated-02","properties":{"truckId":"vehicle-02","waypointDistancesKm":[0,4.509835443061114,5.9166718146215524,6.835023992825205,7.788441790398074,8.218608158784098,9.720563736880937,10.951851194559014,13.503041233333368,14.490879697680112,17.702503239395448]},"geometry":{"type":"LineString","coordinates":[[-64.188709,-31.420109],[-64.18871,-31.420127],[-64.188717,-31.420178],[-64.188727,-31.42023],[-64.188737,-31.420284],[-64.188734,-31.420338],[-64.188686,-31.420476],[-64.188614,-31.420637],[-64.188602,-31.420666],[-64.188216,-31.421509],[-64.188139,-31.421536],[-64.187971,-31.421596],[-64.187883,-31.421621],[-64.186582,-31.422025],[-64.185253,-31.422438],[-64.185197,-31.422455],[-64.183898,-31.422858],[-64.182631,-31.423252],[-64.182244,-31.42231],[-64.182096,-31.421946],[-64.182055,-31.421848],[-64.181996,-31.421707],[-64.181525,-31.420577],[-64.181044,-31.419435],[-64.180579,-31.418327],[-64.180572,-31.418311],[-64.180565,-31.418294],[-64.18008,-31.417168],[-64.179602,-31.416049],[-64.17914,-31.41493],[-64.179101,-31.414847],[-64.179079,-31.414799],[-64.178639,-31.413739],[-64.178175,-31.412602],[-64.177656,-31.411342],[-64.177203,-31.410228],[-64.176765,-31.409209],[-64.176735,-31.409148],[-64.176361,-31.408308],[-64.176341,-31.408269],[-64.176286,-31.408226],[-64.176185,-31.4081],[-64.176159,-31.408064],[-64.175896,-31.407717],[-64.175546,-31.40725],[-64.175507,-31.407204],[-64.175465,-31.407153],[-64.175387,-31.407058],[-64.175031,-31.40662],[-64.174959,-31.406534],[-64.174932,-31.406502],[-64.174327,-31.405871],[-64.174253,-31.405741],[-64.174237,-31.405655],[-64.174421,-31.40516],[-64.174613,-31.404626],[-64.174986,-31.403596],[-64.175374,-31.402538],[-64.17564,-31.401786],[-64.17566,-31.401739],[-64.175698,-31.401671],[-64.175843,-31.4015],[-64.175838,-31.401314],[-64.175835,-31.400318],[-64.175834,-31.400203],[-64.175831,-31.400087],[-64.17583,-31.399469],[-64.175831,-31.399343],[-64.175832,-31.3993],[-64.175832,-31.399278],[-64.175832,-31.399267],[-64.175841,-31.398313],[-64.175845,-31.39814],[-64.175851,-31.39749],[-64.175876,-31.396298],[-64.177237,-31.395878],[-64.178492,-31.395467],[-64.179904,-31.395033],[-64.181026,-31.394689],[-64.181271,-31.39528],[-64.18146,-31.395735],[-64.182752,-31.395331],[-64.184015,-31.394936],[-64.184642,-31.394747],[-64.185318,-31.394528],[-64.186592,-31.39413],[-64.186171,-31.393107],[-64.185704,-31.391996],[-64.185239,-31.390885],[-64.185017,-31.390355],[-64.18518,-31.390264],[-64.185177,-31.389912],[-64.185198,-31.38872],[-64.18519,-31.387559],[-64.185192,-31.386934],[-64.185194,-31.386364],[-64.183814,-31.386363],[-64.183815,-31.386674],[-64.183815,-31.387556],[-64.183812,-31.388717],[-64.183817,-31.389875],[-64.183831,-31.390845],[-64.18384,-31.390933],[-64.185017,-31.390355],[-64.18518,-31.390264],[-64.185177,-31.389912],[-64.184869,-31.389904],[-64.183817,-31.389875],[-64.183831,-31.390845],[-64.18384,-31.390933],[-64.185017,-31.390355],[-64.18518,-31.390264],[-64.185769,-31.389942],[-64.186193,-31.389711],[-64.186546,-31.389518],[-64.187395,-31.389054],[-64.18778,-31.388849],[-64.187863,-31.388805],[-64.187979,-31.388742],[-64.188583,-31.388434],[-64.189295,-31.388063],[-64.189295,-31.387568],[-64.188532,-31.387566],[-64.187945,-31.387565],[-64.187582,-31.387564],[-64.187538,-31.387566],[-64.187243,-31.387564],[-64.18654,-31.387562],[-64.186536,-31.386365],[-64.186533,-31.385394],[-64.186532,-31.385202],[-64.18653,-31.384046],[-64.185198,-31.384055],[-64.183813,-31.384051],[-64.183813,-31.385206],[-64.183814,-31.386363],[-64.183815,-31.386674],[-64.183815,-31.387556],[-64.183812,-31.388717],[-64.183817,-31.389875],[-64.183831,-31.390845],[-64.18384,-31.390933],[-64.183866,-31.391012],[-64.183968,-31.391274],[-64.184431,-31.39239],[-64.184798,-31.393284],[-64.184892,-31.393501],[-64.184985,-31.393724],[-64.185318,-31.394528],[-64.186592,-31.39413],[-64.186171,-31.393107],[-64.185704,-31.391996],[-64.185239,-31.390885],[-64.185017,-31.390355],[-64.18518,-31.390264],[-64.185769,-31.389942],[-64.186193,-31.389711],[-64.186546,-31.389518],[-64.187395,-31.389054],[-64.18778,-31.388849],[-64.187863,-31.388805],[-64.187979,-31.388742],[-64.187941,-31.38865],[-64.187945,-31.387565],[-64.187582,-31.387564],[-64.187538,-31.387566],[-64.187243,-31.387564],[-64.186922,-31.387563],[-64.18654,-31.387562],[-64.186544,-31.388725],[-64.186546,-31.389518],[-64.186193,-31.389711],[-64.185769,-31.389942],[-64.18518,-31.390264],[-64.185017,-31.390355],[-64.18384,-31.390933],[-64.183866,-31.391012],[-64.183968,-31.391274],[-64.184431,-31.39239],[-64.184798,-31.393284],[-64.184892,-31.393501],[-64.185318,-31.394528],[-64.185802,-31.395694],[-64.186036,-31.396262],[-64.186043,-31.396284],[-64.18605,-31.396301],[-64.18626,-31.396825],[-64.18662,-31.397697],[-64.18671,-31.397922],[-64.186994,-31.397834],[-64.187986,-31.397526],[-64.189285,-31.397122],[-64.190589,-31.396718],[-64.191852,-31.396325],[-64.19315,-31.395935],[-64.193415,-31.395868],[-64.193494,-31.395833],[-64.193558,-31.395807],[-64.193649,-31.395769],[-64.193612,-31.395612],[-64.193566,-31.395397],[-64.193533,-31.395219],[-64.193604,-31.395164],[-64.194018,-31.39454],[-64.194597,-31.393642],[-64.19355,-31.393137],[-64.193203,-31.392971],[-64.193091,-31.392946],[-64.19303,-31.392556],[-64.193009,-31.392422],[-64.192938,-31.392041],[-64.192849,-31.392138],[-64.192767,-31.392208],[-64.192709,-31.392239],[-64.192637,-31.392268],[-64.191726,-31.392552],[-64.190882,-31.392827],[-64.190803,-31.392867],[-64.190744,-31.392934],[-64.190572,-31.393235],[-64.190931,-31.394101],[-64.189646,-31.394542],[-64.189149,-31.394709],[-64.189051,-31.394754],[-64.188983,-31.394796],[-64.188814,-31.394932],[-64.188476,-31.395185],[-64.188402,-31.395007],[-64.188392,-31.394983],[-64.188378,-31.394948],[-64.188348,-31.394873],[-64.187073,-31.395308],[-64.187236,-31.395712],[-64.187245,-31.395734],[-64.187253,-31.395751],[-64.187495,-31.396358],[-64.187532,-31.396452],[-64.187986,-31.397526],[-64.188459,-31.398642],[-64.18716,-31.399044],[-64.18763,-31.400137],[-64.188069,-31.401229],[-64.187472,-31.401414],[-64.186827,-31.401612],[-64.186169,-31.401818],[-64.185541,-31.402013],[-64.184883,-31.402218],[-64.184254,-31.402413],[-64.18394,-31.40251],[-64.183263,-31.40272],[-64.182762,-31.402876],[-64.182701,-31.402982],[-64.182651,-31.403105],[-64.182618,-31.403213],[-64.182586,-31.403394],[-64.18255,-31.403744],[-64.182593,-31.40395],[-64.182602,-31.404002],[-64.182614,-31.404246],[-64.182626,-31.404381],[-64.182656,-31.404595],[-64.182701,-31.404839],[-64.182719,-31.40491],[-64.182879,-31.405545],[-64.182932,-31.405738],[-64.18294,-31.405766],[-64.183201,-31.40677],[-64.183212,-31.406813],[-64.183262,-31.406951],[-64.183339,-31.40717],[-64.183389,-31.407298],[-64.183645,-31.407908],[-64.183726,-31.408102],[-64.183788,-31.408253],[-64.183949,-31.408629],[-64.184257,-31.409361],[-64.184637,-31.410262],[-64.184804,-31.410657],[-64.185292,-31.411809],[-64.185718,-31.412838],[-64.185737,-31.412882],[-64.185762,-31.412943],[-64.185948,-31.413383],[-64.186125,-31.413802],[-64.186243,-31.414082],[-64.186591,-31.414907],[-64.186704,-31.415175],[-64.186715,-31.415201],[-64.186739,-31.415256],[-64.186794,-31.415387],[-64.186829,-31.41547],[-64.187167,-31.416272],[-64.187176,-31.416293],[-64.187381,-31.41678],[-64.187392,-31.416806],[-64.187665,-31.417451],[-64.187673,-31.417469],[-64.18769,-31.41751],[-64.188184,-31.418665],[-64.188568,-31.419564],[-64.188701,-31.419841],[-64.188713,-31.419861],[-64.188728,-31.419891],[-64.188735,-31.419927],[-64.188737,-31.419959],[-64.188733,-31.419976],[-64.188728,-31.419991],[-64.188709,-31.420032],[-64.188708,-31.420086],[-64.188709,-31.420103]]}},{"type":"Feature","id":"route-calibrated-03","properties":{"truckId":"vehicle-03","waypointDistancesKm":[0,5.547588671750101,6.8449129437806,7.375887413907922,8.68021857603135,11.096763243873758,11.116744274802894,12.576675612847701,18.307576642346078]},"geometry":{"type":"LineString","coordinates":[[-64.188709,-31.420109],[-64.18871,-31.420127],[-64.188717,-31.420178],[-64.188727,-31.42023],[-64.188737,-31.420284],[-64.188734,-31.420338],[-64.188686,-31.420476],[-64.188614,-31.420637],[-64.188602,-31.420666],[-64.188216,-31.421509],[-64.188139,-31.421536],[-64.187971,-31.421596],[-64.187883,-31.421621],[-64.186582,-31.422025],[-64.185253,-31.422438],[-64.185197,-31.422455],[-64.183898,-31.422858],[-64.182631,-31.423252],[-64.182244,-31.42231],[-64.182096,-31.421946],[-64.182055,-31.421848],[-64.181996,-31.421707],[-64.181525,-31.420577],[-64.181044,-31.419435],[-64.180579,-31.418327],[-64.180572,-31.418311],[-64.180565,-31.418294],[-64.18008,-31.417168],[-64.179602,-31.416049],[-64.17914,-31.41493],[-64.179101,-31.414847],[-64.179079,-31.414799],[-64.178639,-31.413739],[-64.178175,-31.412602],[-64.177656,-31.411342],[-64.177203,-31.410228],[-64.176765,-31.409209],[-64.176735,-31.409148],[-64.176361,-31.408308],[-64.176341,-31.408269],[-64.176286,-31.408226],[-64.176185,-31.4081],[-64.176159,-31.408064],[-64.175896,-31.407717],[-64.175546,-31.40725],[-64.175507,-31.407204],[-64.175465,-31.407153],[-64.175387,-31.407058],[-64.175031,-31.40662],[-64.174959,-31.406534],[-64.174932,-31.406502],[-64.174327,-31.405871],[-64.174253,-31.405741],[-64.174237,-31.405655],[-64.173026,-31.405323],[-64.171845,-31.404999],[-64.170639,-31.404668],[-64.170097,-31.40452],[-64.170041,-31.404504],[-64.169417,-31.404333],[-64.168255,-31.40397],[-64.167834,-31.403839],[-64.167084,-31.403605],[-64.165962,-31.403254],[-64.165628,-31.40315],[-64.165314,-31.403052],[-64.163997,-31.40264],[-64.162883,-31.402276],[-64.162027,-31.402013],[-64.160692,-31.401592],[-64.160633,-31.40157],[-64.16004,-31.401384],[-64.159361,-31.401173],[-64.159046,-31.401073],[-64.158755,-31.400979],[-64.158161,-31.400786],[-64.156762,-31.400349],[-64.156077,-31.400134],[-64.155093,-31.399818],[-64.154097,-31.399512],[-64.15311,-31.399192],[-64.152131,-31.398875],[-64.151155,-31.39856],[-64.150163,-31.398256],[-64.149143,-31.397945],[-64.148747,-31.398891],[-64.148564,-31.399266],[-64.148537,-31.399312],[-64.148494,-31.399388],[-64.148465,-31.399461],[-64.148448,-31.399555],[-64.148422,-31.399835],[-64.1483,-31.399839],[-64.148123,-31.399834],[-64.148121,-31.400085],[-64.148115,-31.400152],[-64.148096,-31.400274],[-64.148201,-31.400318],[-64.148108,-31.400726],[-64.148068,-31.400826],[-64.148336,-31.400926],[-64.151007,-31.401905],[-64.150978,-31.401956],[-64.150935,-31.402003],[-64.150888,-31.402044],[-64.15083,-31.402087],[-64.150654,-31.402211],[-64.150608,-31.402244],[-64.150577,-31.402271],[-64.150562,-31.402291],[-64.150503,-31.402385],[-64.150341,-31.402692],[-64.150322,-31.402747],[-64.150279,-31.402918],[-64.150255,-31.402979],[-64.150227,-31.403029],[-64.150115,-31.403176],[-64.149953,-31.403404],[-64.149934,-31.403434],[-64.149926,-31.403459],[-64.149917,-31.403517],[-64.149873,-31.403975],[-64.149863,-31.404046],[-64.149853,-31.404207],[-64.149836,-31.404274],[-64.149805,-31.404332],[-64.149733,-31.404431],[-64.149716,-31.404458],[-64.149713,-31.404485],[-64.149727,-31.404518],[-64.149774,-31.404617],[-64.149847,-31.404807],[-64.15016,-31.40498],[-64.150219,-31.405002],[-64.150393,-31.405047],[-64.151636,-31.405385],[-64.151395,-31.406033],[-64.151151,-31.406709],[-64.150249,-31.406462],[-64.149989,-31.406391],[-64.149959,-31.406382],[-64.149947,-31.406363],[-64.149946,-31.406334],[-64.150072,-31.405906],[-64.149946,-31.406334],[-64.149947,-31.406363],[-64.149959,-31.406382],[-64.149989,-31.406391],[-64.151151,-31.406709],[-64.151395,-31.406033],[-64.151636,-31.405385],[-64.151866,-31.404704],[-64.151994,-31.404354],[-64.152095,-31.404077],[-64.152645,-31.404232],[-64.152838,-31.404279],[-64.153091,-31.404348],[-64.153615,-31.404489],[-64.153375,-31.405111],[-64.153135,-31.40578],[-64.152891,-31.406453],[-64.152651,-31.40712],[-64.15244,-31.407707],[-64.151667,-31.407498],[-64.151104,-31.407337],[-64.151051,-31.407338],[-64.151002,-31.407351],[-64.150965,-31.407367],[-64.150926,-31.407395],[-64.1509,-31.407424],[-64.150874,-31.40747],[-64.150721,-31.407841],[-64.150516,-31.408365],[-64.150127,-31.408261],[-64.149995,-31.408235],[-64.14997,-31.408201],[-64.149846,-31.407997],[-64.149758,-31.407865],[-64.149725,-31.40782],[-64.149684,-31.407774],[-64.149641,-31.407737],[-64.148922,-31.407266],[-64.148751,-31.407155],[-64.14822,-31.406863],[-64.148124,-31.40681],[-64.148099,-31.406871],[-64.14809,-31.406921],[-64.148115,-31.407502],[-64.147866,-31.407499],[-64.146981,-31.407453],[-64.146688,-31.407438],[-64.146705,-31.406138],[-64.145987,-31.406021],[-64.144879,-31.405844],[-64.144082,-31.405656],[-64.143717,-31.40558],[-64.143224,-31.405464],[-64.143108,-31.405433],[-64.143017,-31.405401],[-64.142921,-31.405356],[-64.142622,-31.405191],[-64.142406,-31.405072],[-64.141642,-31.404659],[-64.141858,-31.402879],[-64.14188,-31.402713],[-64.142428,-31.3996],[-64.142437,-31.39942],[-64.142433,-31.399376],[-64.142418,-31.399343],[-64.14239,-31.399313],[-64.142293,-31.399215],[-64.142227,-31.399186],[-64.142209,-31.399178],[-64.142187,-31.399131],[-64.142178,-31.399096],[-64.142171,-31.399055],[-64.142172,-31.399028],[-64.142177,-31.398998],[-64.142186,-31.398977],[-64.142209,-31.398942],[-64.142237,-31.398918],[-64.142274,-31.398894],[-64.142331,-31.398865],[-64.142403,-31.398864],[-64.14247,-31.398842],[-64.142504,-31.398823],[-64.142535,-31.398803],[-64.142572,-31.398774],[-64.142605,-31.39874],[-64.142612,-31.398697],[-64.14262,-31.398653],[-64.142714,-31.398122],[-64.142721,-31.398009],[-64.142726,-31.397927],[-64.142728,-31.397221],[-64.142695,-31.397144],[-64.14245,-31.396704],[-64.142445,-31.396683],[-64.142431,-31.396624],[-64.142423,-31.396572],[-64.142437,-31.39615],[-64.142437,-31.39611],[-64.142445,-31.395673],[-64.142439,-31.395236],[-64.143063,-31.395341],[-64.14382,-31.395452],[-64.144724,-31.39555],[-64.144764,-31.395564],[-64.145194,-31.395719],[-64.145416,-31.395789],[-64.14561,-31.39583],[-64.146321,-31.396019],[-64.147068,-31.396212],[-64.147039,-31.397276],[-64.146992,-31.397848],[-64.146985,-31.39794],[-64.147001,-31.397975],[-64.147056,-31.397992],[-64.147663,-31.398025],[-64.147689,-31.398002],[-64.147707,-31.39779],[-64.147824,-31.396412],[-64.147068,-31.396212],[-64.146321,-31.396019],[-64.14561,-31.39583],[-64.145416,-31.395789],[-64.145194,-31.395719],[-64.144764,-31.395564],[-64.144724,-31.39555],[-64.14382,-31.395452],[-64.143063,-31.395341],[-64.143061,-31.39564],[-64.143059,-31.39626],[-64.143059,-31.396312],[-64.143052,-31.396591],[-64.14303,-31.396673],[-64.14278,-31.397129],[-64.142758,-31.397171],[-64.142728,-31.397221],[-64.142726,-31.397927],[-64.142721,-31.398009],[-64.142714,-31.398122],[-64.14262,-31.398653],[-64.142612,-31.398697],[-64.142605,-31.39874],[-64.14262,-31.398791],[-64.142631,-31.398817],[-64.142656,-31.39885],[-64.142681,-31.398879],[-64.14272,-31.398918],[-64.142795,-31.398946],[-64.143113,-31.3991],[-64.143185,-31.399135],[-64.143296,-31.399174],[-64.14342,-31.399209],[-64.143685,-31.399276],[-64.144012,-31.399363],[-64.144228,-31.399428],[-64.144603,-31.399557],[-64.146064,-31.400092],[-64.148068,-31.400826],[-64.148336,-31.400926],[-64.151007,-31.401905],[-64.152113,-31.402304],[-64.152525,-31.402432],[-64.152728,-31.402475],[-64.153015,-31.402528],[-64.153597,-31.402602],[-64.154233,-31.402642],[-64.154368,-31.402654],[-64.154506,-31.402673],[-64.154658,-31.402707],[-64.154803,-31.402746],[-64.155142,-31.402822],[-64.155254,-31.402858],[-64.155402,-31.402902],[-64.156044,-31.403042],[-64.157183,-31.403344],[-64.158305,-31.403652],[-64.159724,-31.404027],[-64.159785,-31.404043],[-64.15942,-31.405098],[-64.159105,-31.405918],[-64.15908,-31.405987],[-64.15903,-31.406098],[-64.158884,-31.406489],[-64.158864,-31.406544],[-64.158738,-31.406882],[-64.158659,-31.407097],[-64.158646,-31.407146],[-64.158275,-31.40814],[-64.158259,-31.408188],[-64.159908,-31.408637],[-64.161123,-31.408967],[-64.162319,-31.409292],[-64.163497,-31.409613],[-64.164706,-31.409942],[-64.165938,-31.410281],[-64.167136,-31.410605],[-64.168331,-31.410928],[-64.169554,-31.411276],[-64.170737,-31.411583],[-64.17105,-31.411664],[-64.171928,-31.411908],[-64.173136,-31.412259],[-64.173379,-31.412324],[-64.173545,-31.412373],[-64.173614,-31.412389],[-64.173793,-31.412409],[-64.173999,-31.412403],[-64.174162,-31.412382],[-64.174325,-31.412345],[-64.17514,-31.412102],[-64.175289,-31.41206],[-64.176036,-31.41182],[-64.176307,-31.411738],[-64.176928,-31.411551],[-64.177556,-31.41137],[-64.177606,-31.411356],[-64.177656,-31.411342],[-64.178128,-31.411189],[-64.178211,-31.411164],[-64.178651,-31.411032],[-64.178929,-31.410948],[-64.180234,-31.410554],[-64.180885,-31.410358],[-64.181556,-31.410156],[-64.182475,-31.409886],[-64.182851,-31.409775],[-64.184257,-31.409361],[-64.184637,-31.410262],[-64.184804,-31.410657],[-64.185292,-31.411809],[-64.185718,-31.412838],[-64.185737,-31.412882],[-64.185762,-31.412943],[-64.185948,-31.413383],[-64.186125,-31.413802],[-64.186243,-31.414082],[-64.186591,-31.414907],[-64.186704,-31.415175],[-64.186715,-31.415201],[-64.186739,-31.415256],[-64.186794,-31.415387],[-64.186829,-31.41547],[-64.187167,-31.416272],[-64.187176,-31.416293],[-64.187381,-31.41678],[-64.187392,-31.416806],[-64.187665,-31.417451],[-64.187673,-31.417469],[-64.18769,-31.41751],[-64.188184,-31.418665],[-64.188568,-31.419564],[-64.188701,-31.419841],[-64.188713,-31.419861],[-64.188728,-31.419891],[-64.188735,-31.419927],[-64.188737,-31.419959],[-64.188733,-31.419976],[-64.188728,-31.419991],[-64.188709,-31.420032],[-64.188708,-31.420086],[-64.188709,-31.420103]]}},{"type":"Feature","id":"route-calibrated-04","properties":{"truckId":"vehicle-04","waypointDistancesKm":[0,4.302458973243825,5.921834616243232,6.424055676669377,8.17708729258084,9.92570585374375,10.290186162040671,12.3182584307388,13.785907069065143,17.810040760318856]},"geometry":{"type":"LineString","coordinates":[[-64.188709,-31.420109],[-64.18871,-31.420127],[-64.188717,-31.420178],[-64.188727,-31.42023],[-64.188737,-31.420284],[-64.188734,-31.420338],[-64.188686,-31.420476],[-64.188614,-31.420637],[-64.188602,-31.420666],[-64.188216,-31.421509],[-64.188139,-31.421536],[-64.187971,-31.421596],[-64.187883,-31.421621],[-64.186582,-31.422025],[-64.185253,-31.422438],[-64.185197,-31.422455],[-64.183898,-31.422858],[-64.182631,-31.423252],[-64.182565,-31.423271],[-64.18253,-31.423283],[-64.182506,-31.42329],[-64.181316,-31.423663],[-64.179964,-31.424077],[-64.178535,-31.424519],[-64.177466,-31.424853],[-64.177432,-31.424864],[-64.177038,-31.424981],[-64.176902,-31.425026],[-64.176656,-31.42491],[-64.176612,-31.42489],[-64.175619,-31.424434],[-64.175471,-31.424366],[-64.17482,-31.424104],[-64.174766,-31.424077],[-64.174564,-31.423987],[-64.174476,-31.423932],[-64.17426,-31.423751],[-64.174219,-31.42372],[-64.17418,-31.423693],[-64.174062,-31.423629],[-64.174049,-31.423621],[-64.173959,-31.423593],[-64.173886,-31.42359],[-64.173798,-31.423598],[-64.173636,-31.423724],[-64.173436,-31.423875],[-64.173183,-31.424032],[-64.172972,-31.424151],[-64.172919,-31.424181],[-64.172509,-31.424412],[-64.172225,-31.424549],[-64.171993,-31.42465],[-64.171628,-31.424784],[-64.171037,-31.424981],[-64.170866,-31.425028],[-64.170769,-31.425051],[-64.170722,-31.42506],[-64.17049,-31.425121],[-64.170263,-31.425165],[-64.170078,-31.425193],[-64.169971,-31.425203],[-64.169853,-31.425218],[-64.169717,-31.42524],[-64.169419,-31.425293],[-64.169341,-31.425306],[-64.169296,-31.425309],[-64.169265,-31.42531],[-64.169224,-31.425303],[-64.169173,-31.425288],[-64.169123,-31.425281],[-64.169075,-31.425279],[-64.168999,-31.425281],[-64.168965,-31.425291],[-64.168933,-31.425301],[-64.16844,-31.425386],[-64.168398,-31.425376],[-64.168366,-31.42536],[-64.168338,-31.425337],[-64.168319,-31.425311],[-64.168312,-31.425297],[-64.168302,-31.425278],[-64.168287,-31.425237],[-64.168276,-31.425205],[-64.168274,-31.425193],[-64.168282,-31.425165],[-64.168292,-31.425141],[-64.168306,-31.42511],[-64.16832,-31.425083],[-64.168342,-31.425061],[-64.168386,-31.425033],[-64.168449,-31.425005],[-64.168534,-31.424985],[-64.168689,-31.42496],[-64.168768,-31.42492],[-64.168793,-31.424894],[-64.168805,-31.424871],[-64.168808,-31.424848],[-64.168799,-31.424812],[-64.16878,-31.424785],[-64.168744,-31.424761],[-64.167496,-31.424058],[-64.16746,-31.424042],[-64.1674,-31.424026],[-64.167337,-31.424017],[-64.16696,-31.424009],[-64.166737,-31.423997],[-64.166311,-31.423986],[-64.166259,-31.423985],[-64.165856,-31.423989],[-64.165347,-31.424021],[-64.164873,-31.424062],[-64.164742,-31.42407],[-64.164397,-31.424107],[-64.163539,-31.424201],[-64.163345,-31.424188],[-64.162111,-31.424274],[-64.161482,-31.424332],[-64.160848,-31.424383],[-64.159593,-31.42449],[-64.158435,-31.424598],[-64.15834,-31.424607],[-64.157726,-31.424664],[-64.157066,-31.424726],[-64.155836,-31.42484],[-64.154576,-31.424958],[-64.153325,-31.425075],[-64.153176,-31.424019],[-64.15311,-31.423367],[-64.152953,-31.423362],[-64.152805,-31.423316],[-64.152682,-31.423231],[-64.152596,-31.423118],[-64.152557,-31.422988],[-64.152568,-31.422856],[-64.152626,-31.422734],[-64.152725,-31.422634],[-64.152856,-31.422564],[-64.153005,-31.422532],[-64.152988,-31.422445],[-64.152913,-31.421802],[-64.15283,-31.421144],[-64.152779,-31.420741],[-64.15265,-31.419704],[-64.15206,-31.419762],[-64.15139,-31.419828],[-64.150145,-31.419928],[-64.148898,-31.420041],[-64.147644,-31.420151],[-64.146411,-31.420259],[-64.145048,-31.420378],[-64.143804,-31.420487],[-64.142545,-31.420598],[-64.141314,-31.420706],[-64.140065,-31.420815],[-64.139894,-31.419764],[-64.139724,-31.418685],[-64.139699,-31.418518],[-64.139563,-31.417629],[-64.140829,-31.417509],[-64.141454,-31.417446],[-64.142055,-31.417392],[-64.142225,-31.418455],[-64.142286,-31.418859],[-64.142387,-31.419527],[-64.142545,-31.420598],[-64.142712,-31.421647],[-64.142887,-31.42274],[-64.143037,-31.423799],[-64.143046,-31.423857],[-64.144308,-31.423743],[-64.145545,-31.423635],[-64.146812,-31.423511],[-64.147531,-31.423444],[-64.147525,-31.423399],[-64.14749,-31.423176],[-64.14749,-31.423136],[-64.147508,-31.423107],[-64.147541,-31.423076],[-64.147609,-31.423015],[-64.147649,-31.422993],[-64.14771,-31.422972],[-64.148014,-31.422949],[-64.148463,-31.4229],[-64.148508,-31.422905],[-64.148525,-31.422926],[-64.148529,-31.422958],[-64.14858,-31.423346],[-64.148613,-31.423343],[-64.149306,-31.42328],[-64.150563,-31.423173],[-64.1518,-31.423063],[-64.151928,-31.424139],[-64.152079,-31.425193],[-64.152115,-31.425462],[-64.152224,-31.426281],[-64.152707,-31.426231],[-64.15346,-31.426167],[-64.153325,-31.425075],[-64.152686,-31.425135],[-64.152079,-31.425193],[-64.150838,-31.425302],[-64.149579,-31.425425],[-64.148964,-31.425482],[-64.148361,-31.425538],[-64.147104,-31.425655],[-64.145869,-31.425771],[-64.14464,-31.425886],[-64.14338,-31.426002],[-64.14212,-31.42612],[-64.140868,-31.426238],[-64.141057,-31.427284],[-64.141128,-31.427746],[-64.140516,-31.427799],[-64.139955,-31.427847],[-64.138786,-31.427945],[-64.138718,-31.427488],[-64.138632,-31.426961],[-64.138553,-31.426453],[-64.138216,-31.426484],[-64.137398,-31.42656],[-64.137488,-31.427087],[-64.137571,-31.427595],[-64.137646,-31.428066],[-64.13773,-31.428573],[-64.137802,-31.429041],[-64.137883,-31.429564],[-64.137953,-31.430036],[-64.138042,-31.430507],[-64.138057,-31.430556],[-64.138076,-31.430618],[-64.1381,-31.430694],[-64.138469,-31.431636],[-64.138619,-31.431621],[-64.138759,-31.431614],[-64.138808,-31.431611],[-64.138948,-31.431619],[-64.139072,-31.431636],[-64.139202,-31.431671],[-64.139326,-31.431712],[-64.139498,-31.431805],[-64.139937,-31.432184],[-64.140237,-31.432483],[-64.140288,-31.432524],[-64.140354,-31.432565],[-64.140466,-31.432616],[-64.140556,-31.432652],[-64.140664,-31.432682],[-64.141106,-31.432775],[-64.141445,-31.432819],[-64.141731,-31.432823],[-64.142746,-31.432803],[-64.143318,-31.432814],[-64.143567,-31.432828],[-64.1438,-31.432851],[-64.144016,-31.432874],[-64.14416,-31.432901],[-64.144656,-31.433032],[-64.14496,-31.433099],[-64.14519,-31.433146],[-64.145226,-31.433079],[-64.145329,-31.432891],[-64.145364,-31.432865],[-64.146226,-31.432785],[-64.147321,-31.432684],[-64.147207,-31.431715],[-64.14832,-31.431613],[-64.149394,-31.431516],[-64.150495,-31.431415],[-64.150944,-31.431374],[-64.151646,-31.431311],[-64.151527,-31.430391],[-64.151402,-31.429425],[-64.151382,-31.429294],[-64.151375,-31.429246],[-64.151372,-31.429191],[-64.151129,-31.427442],[-64.150987,-31.426393],[-64.150838,-31.425302],[-64.150694,-31.424255],[-64.150563,-31.423173],[-64.1518,-31.423063],[-64.152557,-31.422988],[-64.152568,-31.422856],[-64.152626,-31.422734],[-64.152725,-31.422634],[-64.152856,-31.422564],[-64.153005,-31.422532],[-64.152988,-31.422445],[-64.152913,-31.421802],[-64.15166,-31.421921],[-64.151688,-31.422146],[-64.151792,-31.422998],[-64.1518,-31.423063],[-64.152557,-31.422988],[-64.152568,-31.422856],[-64.152626,-31.422734],[-64.152725,-31.422634],[-64.152856,-31.422564],[-64.153005,-31.422532],[-64.153157,-31.422541],[-64.153299,-31.42259],[-64.153416,-31.422672],[-64.153498,-31.422782],[-64.153537,-31.422907],[-64.154314,-31.42284],[-64.155562,-31.42272],[-64.156799,-31.4226],[-64.158066,-31.422477],[-64.158666,-31.422417],[-64.159311,-31.422357],[-64.159969,-31.422286],[-64.160047,-31.422284],[-64.160136,-31.422291],[-64.160581,-31.422363],[-64.160912,-31.422433],[-64.161051,-31.422464],[-64.161297,-31.422505],[-64.161429,-31.422517],[-64.161615,-31.422529],[-64.161879,-31.422536],[-64.163091,-31.422563],[-64.163299,-31.422566],[-64.163718,-31.42258],[-64.164124,-31.422593],[-64.164408,-31.422618],[-64.164488,-31.422662],[-64.164532,-31.422705],[-64.164574,-31.422767],[-64.1646,-31.42283],[-64.164623,-31.422988],[-64.164674,-31.423447],[-64.164726,-31.423936],[-64.164735,-31.424011],[-64.164871,-31.424002],[-64.165336,-31.423957],[-64.1654,-31.423954],[-64.165822,-31.423933],[-64.165867,-31.423931],[-64.166244,-31.423926],[-64.16631,-31.423927],[-64.166957,-31.423938],[-64.167358,-31.423946],[-64.167428,-31.423957],[-64.167497,-31.42398],[-64.167552,-31.424005],[-64.168851,-31.424755],[-64.1689,-31.424796],[-64.168942,-31.424825],[-64.168979,-31.42487],[-64.169008,-31.424923],[-64.169022,-31.424964],[-64.169048,-31.425045],[-64.16907,-31.425072],[-64.169099,-31.425099],[-64.169124,-31.425133],[-64.169142,-31.425164],[-64.169161,-31.425189],[-64.169183,-31.425211],[-64.169207,-31.425226],[-64.169235,-31.425235],[-64.169268,-31.425244],[-64.1693,-31.425244],[-64.169326,-31.425242],[-64.169381,-31.425236],[-64.169404,-31.425234],[-64.170656,-31.425013],[-64.171127,-31.4249],[-64.171374,-31.424824],[-64.171611,-31.424741],[-64.171996,-31.424593],[-64.172312,-31.424449],[-64.172769,-31.424206],[-64.173035,-31.424057],[-64.173234,-31.423937],[-64.17346,-31.423782],[-64.173711,-31.423588],[-64.17388,-31.423447],[-64.174027,-31.423307],[-64.174115,-31.423319],[-64.174169,-31.423343],[-64.174289,-31.4234],[-64.174319,-31.423444],[-64.174324,-31.423452],[-64.174405,-31.423543],[-64.174516,-31.423642],[-64.174679,-31.423753],[-64.17483,-31.423817],[-64.174913,-31.423852],[-64.175,-31.423871],[-64.175044,-31.423879],[-64.175097,-31.423881],[-64.175136,-31.42388],[-64.175179,-31.423878],[-64.175252,-31.423859],[-64.175305,-31.423832],[-64.175349,-31.423796],[-64.175385,-31.423753],[-64.175452,-31.423658],[-64.175523,-31.423557],[-64.175624,-31.423485],[-64.175668,-31.423462],[-64.175739,-31.423432],[-64.175788,-31.423418],[-64.175825,-31.423407],[-64.176026,-31.423351],[-64.176285,-31.423288],[-64.176398,-31.423265],[-64.176516,-31.423243],[-64.176741,-31.423226],[-64.177859,-31.422944],[-64.179313,-31.422566],[-64.180685,-31.422206],[-64.181908,-31.421886],[-64.181933,-31.42188],[-64.182055,-31.421848],[-64.183332,-31.421513],[-64.183646,-31.421431],[-64.184303,-31.421259],[-64.184705,-31.421154],[-64.186053,-31.420801],[-64.186264,-31.420749],[-64.187394,-31.420469],[-64.187439,-31.420456],[-64.187877,-31.420332],[-64.188038,-31.420286],[-64.188169,-31.420245],[-64.188208,-31.420233],[-64.188297,-31.420206],[-64.188431,-31.42015],[-64.188553,-31.4201],[-64.188617,-31.420073],[-64.188664,-31.420053],[-64.188709,-31.420032],[-64.188708,-31.420086],[-64.188709,-31.420103]]}},{"type":"Feature","id":"route-calibrated-05","properties":{"truckId":"vehicle-05","waypointDistancesKm":[0,6.326316026178951,6.756824372463612,8.676153960228289,9.943983094627841,10.923739999571945,12.665333790703517,17.997444728790423]},"geometry":{"type":"LineString","coordinates":[[-64.188709,-31.420109],[-64.18871,-31.420127],[-64.188717,-31.420178],[-64.188727,-31.42023],[-64.188737,-31.420284],[-64.188734,-31.420338],[-64.188686,-31.420476],[-64.188614,-31.420637],[-64.188602,-31.420666],[-64.188216,-31.421509],[-64.188008,-31.421909],[-64.187455,-31.423057],[-64.187282,-31.423421],[-64.187225,-31.42354],[-64.187179,-31.423635],[-64.186727,-31.424578],[-64.18644,-31.425174],[-64.186032,-31.426085],[-64.186005,-31.426146],[-64.185991,-31.426177],[-64.185638,-31.426928],[-64.185591,-31.427033],[-64.185475,-31.427292],[-64.185452,-31.42734],[-64.185317,-31.427621],[-64.185278,-31.427701],[-64.185251,-31.427773],[-64.18524,-31.427801],[-64.185211,-31.427886],[-64.185203,-31.42792],[-64.185197,-31.427969],[-64.185195,-31.427999],[-64.185198,-31.42802],[-64.185201,-31.428042],[-64.185215,-31.428094],[-64.18523,-31.428147],[-64.185282,-31.428181],[-64.18533,-31.428221],[-64.185372,-31.428265],[-64.185414,-31.42832],[-64.185448,-31.42838],[-64.185473,-31.428443],[-64.185488,-31.428508],[-64.185494,-31.428577],[-64.185489,-31.428647],[-64.185473,-31.428715],[-64.185452,-31.428769],[-64.185425,-31.42882],[-64.185392,-31.428868],[-64.185374,-31.42889],[-64.185353,-31.428914],[-64.18529,-31.42897],[-64.185242,-31.429003],[-64.185187,-31.429034],[-64.185128,-31.429059],[-64.185067,-31.429079],[-64.185004,-31.429094],[-64.184939,-31.429102],[-64.184873,-31.429105],[-64.18483,-31.429103],[-64.184805,-31.429145],[-64.184753,-31.429227],[-64.184332,-31.430003],[-64.184281,-31.430136],[-64.184245,-31.430271],[-64.184228,-31.430396],[-64.184225,-31.430483],[-64.18423,-31.430592],[-64.184247,-31.430714],[-64.184268,-31.430787],[-64.184316,-31.430954],[-64.184353,-31.431137],[-64.184358,-31.431233],[-64.18436,-31.431315],[-64.184338,-31.431459],[-64.184307,-31.431573],[-64.18424,-31.431772],[-64.18419,-31.431892],[-64.184139,-31.432077],[-64.184045,-31.432431],[-64.184058,-31.432462],[-64.184056,-31.432541],[-64.184055,-31.43259],[-64.184047,-31.432641],[-64.184038,-31.43268],[-64.184016,-31.43273],[-64.183989,-31.432776],[-64.183961,-31.432815],[-64.183921,-31.432858],[-64.183884,-31.432885],[-64.183832,-31.432906],[-64.183785,-31.432917],[-64.183727,-31.432921],[-64.183666,-31.43292],[-64.183617,-31.432904],[-64.183578,-31.432882],[-64.183555,-31.432859],[-64.183464,-31.432825],[-64.183272,-31.432765],[-64.183261,-31.432762],[-64.183187,-31.432742],[-64.183092,-31.432727],[-64.183023,-31.432723],[-64.182925,-31.432733],[-64.182817,-31.432762],[-64.180662,-31.433698],[-64.180564,-31.433741],[-64.180445,-31.433783],[-64.178659,-31.43435],[-64.177572,-31.434679],[-64.176526,-31.434984],[-64.176275,-31.435063],[-64.176038,-31.435138],[-64.175811,-31.435207],[-64.175677,-31.435247],[-64.175693,-31.435344],[-64.175821,-31.436081],[-64.175974,-31.436964],[-64.175978,-31.436991],[-64.175988,-31.437041],[-64.176052,-31.4374],[-64.176159,-31.43799],[-64.176203,-31.438236],[-64.176408,-31.43937],[-64.176648,-31.440806],[-64.176709,-31.441189],[-64.176706,-31.441312],[-64.176725,-31.441443],[-64.176725,-31.441501],[-64.176724,-31.441639],[-64.17672,-31.442532],[-64.176716,-31.44343],[-64.176704,-31.444734],[-64.176704,-31.444868],[-64.176703,-31.444913],[-64.176698,-31.44548],[-64.176694,-31.445977],[-64.176693,-31.44602],[-64.176693,-31.446095],[-64.176688,-31.446676],[-64.17668,-31.447201],[-64.176671,-31.447774],[-64.176665,-31.448597],[-64.176661,-31.449193],[-64.176661,-31.449309],[-64.176659,-31.449509],[-64.176654,-31.449877],[-64.176647,-31.450785],[-64.176661,-31.450812],[-64.176664,-31.45084],[-64.176656,-31.450868],[-64.176638,-31.450892],[-64.176612,-31.450909],[-64.176581,-31.450919],[-64.176548,-31.45092],[-64.17646,-31.450961],[-64.176165,-31.451104],[-64.175777,-31.451478],[-64.17551,-31.451736],[-64.175336,-31.451903],[-64.175253,-31.451984],[-64.17518,-31.452054],[-64.175106,-31.452125],[-64.174835,-31.452387],[-64.174352,-31.452868],[-64.173129,-31.454084],[-64.172334,-31.454867],[-64.171723,-31.455481],[-64.171696,-31.455559],[-64.171665,-31.455605],[-64.171636,-31.45564],[-64.171621,-31.455655],[-64.171591,-31.455686],[-64.171551,-31.455722],[-64.171509,-31.455763],[-64.171463,-31.455798],[-64.171389,-31.455833],[-64.170351,-31.456847],[-64.169761,-31.457434],[-64.16956,-31.457634],[-64.168805,-31.458385],[-64.168772,-31.458437],[-64.168744,-31.458471],[-64.168709,-31.4585],[-64.168661,-31.458526],[-64.16833,-31.458525],[-64.167557,-31.458539],[-64.166098,-31.458558],[-64.165376,-31.458535],[-64.164664,-31.458541],[-64.164579,-31.458543],[-64.163207,-31.458548],[-64.16318,-31.458548],[-64.162722,-31.45855],[-64.161666,-31.458556],[-64.161504,-31.458557],[-64.160661,-31.458562],[-64.160453,-31.458563],[-64.16022,-31.458564],[-64.160344,-31.457425],[-64.160454,-31.456407],[-64.160463,-31.456327],[-64.160671,-31.456342],[-64.160668,-31.456368],[-64.160564,-31.457425],[-64.160507,-31.457991],[-64.160453,-31.458563],[-64.160455,-31.458653],[-64.160456,-31.458695],[-64.160772,-31.458686],[-64.161494,-31.458682],[-64.161924,-31.458678],[-64.16293,-31.458669],[-64.163203,-31.458668],[-64.163207,-31.458548],[-64.16318,-31.458548],[-64.162722,-31.45855],[-64.161666,-31.458556],[-64.161504,-31.458557],[-64.160661,-31.458562],[-64.160453,-31.458563],[-64.16022,-31.458564],[-64.160344,-31.457425],[-64.160463,-31.456327],[-64.160515,-31.455856],[-64.160528,-31.455672],[-64.160526,-31.455529],[-64.160536,-31.455462],[-64.160554,-31.455404],[-64.160652,-31.455186],[-64.160861,-31.454583],[-64.160953,-31.454322],[-64.160974,-31.454223],[-64.161001,-31.454059],[-64.161028,-31.453957],[-64.161114,-31.453691],[-64.161293,-31.453102],[-64.161486,-31.452409],[-64.161518,-31.45234],[-64.161654,-31.452149],[-64.161718,-31.451972],[-64.161755,-31.451886],[-64.161797,-31.451784],[-64.162181,-31.451182],[-64.163218,-31.449625],[-64.163456,-31.449244],[-64.163478,-31.449193],[-64.163483,-31.449153],[-64.163479,-31.449051],[-64.16346,-31.448188],[-64.163442,-31.448091],[-64.164088,-31.448074],[-64.164077,-31.447172],[-64.164089,-31.446149],[-64.164092,-31.445927],[-64.163417,-31.445927],[-64.163417,-31.447168],[-64.163429,-31.448005],[-64.163442,-31.448091],[-64.16346,-31.448188],[-64.163479,-31.449051],[-64.163483,-31.449153],[-64.163478,-31.449193],[-64.163456,-31.449244],[-64.163218,-31.449625],[-64.162181,-31.451182],[-64.162047,-31.451177],[-64.161346,-31.45118],[-64.160648,-31.451178],[-64.159915,-31.451389],[-64.159243,-31.451361],[-64.158499,-31.451331],[-64.157882,-31.451301],[-64.157821,-31.451293],[-64.157808,-31.451756],[-64.157818,-31.452242],[-64.157405,-31.452233],[-64.157195,-31.452229],[-64.156333,-31.452214],[-64.156286,-31.452137],[-64.156283,-31.45205],[-64.156292,-31.451657],[-64.156301,-31.451188],[-64.156308,-31.450696],[-64.15631,-31.450667],[-64.156326,-31.45023],[-64.156326,-31.450182],[-64.156338,-31.449673],[-64.156354,-31.449168],[-64.156364,-31.448667],[-64.156375,-31.448151],[-64.156871,-31.44815],[-64.156869,-31.447681],[-64.156871,-31.447037],[-64.156872,-31.446393],[-64.156874,-31.445784],[-64.156875,-31.445177],[-64.157375,-31.445178],[-64.157575,-31.445179],[-64.158357,-31.445182],[-64.159156,-31.445185],[-64.159159,-31.445799],[-64.159152,-31.446408],[-64.159152,-31.447097],[-64.159151,-31.447619],[-64.159153,-31.448071],[-64.159173,-31.448136],[-64.15921,-31.448215],[-64.159236,-31.449739],[-64.159237,-31.450599],[-64.159238,-31.450659],[-64.159243,-31.451361],[-64.159915,-31.451389],[-64.160648,-31.451178],[-64.161346,-31.45118],[-64.162047,-31.451177],[-64.162181,-31.451182],[-64.163055,-31.451184],[-64.163752,-31.451185],[-64.163756,-31.452454],[-64.163763,-31.454057],[-64.164417,-31.454053],[-64.165096,-31.454052],[-64.165175,-31.454052],[-64.165839,-31.454049],[-64.166535,-31.454044],[-64.166886,-31.45404],[-64.167143,-31.454042],[-64.167328,-31.454042],[-64.167941,-31.454046],[-64.168625,-31.45405],[-64.168761,-31.454051],[-64.16876,-31.453958],[-64.168756,-31.453575],[-64.168766,-31.452685],[-64.168764,-31.452587],[-64.168764,-31.452485],[-64.168767,-31.45237],[-64.168765,-31.452305],[-64.168766,-31.452213],[-64.168762,-31.452118],[-64.168758,-31.451341],[-64.168758,-31.451281],[-64.168758,-31.451186],[-64.168758,-31.451087],[-64.168766,-31.450203],[-64.168764,-31.449897],[-64.168763,-31.449633],[-64.168763,-31.44952],[-64.168764,-31.449445],[-64.16877,-31.448668],[-64.168761,-31.447788],[-64.168764,-31.447248],[-64.168766,-31.446768],[-64.168767,-31.446699],[-64.168767,-31.446592],[-64.168767,-31.446518],[-64.16877,-31.44591],[-64.168772,-31.44562],[-64.168774,-31.445209],[-64.168776,-31.444747],[-64.168778,-31.444327],[-64.16878,-31.443771],[-64.168781,-31.443696],[-64.168781,-31.443617],[-64.168781,-31.443533],[-64.168785,-31.442725],[-64.168791,-31.441481],[-64.168804,-31.440648],[-64.168808,-31.440576],[-64.16881,-31.440531],[-64.168808,-31.440406],[-64.168798,-31.44001],[-64.168797,-31.438988],[-64.168796,-31.43828],[-64.168796,-31.438123],[-64.168796,-31.437625],[-64.168796,-31.437228],[-64.168795,-31.436813],[-64.168795,-31.43632],[-64.168795,-31.436119],[-64.168794,-31.435513],[-64.168794,-31.43524],[-64.168796,-31.434707],[-64.168795,-31.434323],[-64.168807,-31.433437],[-64.168802,-31.432514],[-64.168815,-31.431836],[-64.168823,-31.43181],[-64.168844,-31.43176],[-64.168938,-31.431653],[-64.169011,-31.431667],[-64.169093,-31.431673],[-64.169209,-31.431672],[-64.169386,-31.431665],[-64.169477,-31.431654],[-64.169685,-31.431603],[-64.169705,-31.431583],[-64.169725,-31.431563],[-64.169782,-31.431394],[-64.169791,-31.431356],[-64.1698,-31.4313],[-64.169835,-31.430669],[-64.169835,-31.430595],[-64.169833,-31.430515],[-64.169824,-31.430468],[-64.169799,-31.430385],[-64.169773,-31.430324],[-64.169754,-31.430271],[-64.169743,-31.430212],[-64.169738,-31.430153],[-64.169757,-31.429927],[-64.169758,-31.429857],[-64.169754,-31.429798],[-64.169721,-31.42955],[-64.169684,-31.429259],[-64.16984,-31.429192],[-64.169995,-31.429131],[-64.17013,-31.429064],[-64.17018,-31.429027],[-64.170188,-31.429021],[-64.17026,-31.42896],[-64.170379,-31.428852],[-64.17085,-31.428412],[-64.170936,-31.428338],[-64.171112,-31.428201],[-64.171415,-31.427895],[-64.171577,-31.427733],[-64.171664,-31.427636],[-64.171768,-31.427531],[-64.171952,-31.427347],[-64.172051,-31.427248],[-64.172232,-31.427067],[-64.172823,-31.426481],[-64.173023,-31.426288],[-64.17363,-31.42569],[-64.173962,-31.425359],[-64.174126,-31.425195],[-64.174333,-31.424975],[-64.17439,-31.424913],[-64.174546,-31.424738],[-64.174613,-31.424663],[-64.174672,-31.424607],[-64.174792,-31.424495],[-64.174942,-31.424368],[-64.174997,-31.424309],[-64.175271,-31.424],[-64.175521,-31.42373],[-64.175607,-31.423637],[-64.175695,-31.423568],[-64.175765,-31.423526],[-64.175856,-31.423478],[-64.175932,-31.423446],[-64.175996,-31.423425],[-64.176361,-31.423324],[-64.176741,-31.423226],[-64.177859,-31.422944],[-64.179313,-31.422566],[-64.180685,-31.422206],[-64.181908,-31.421886],[-64.181933,-31.42188],[-64.182055,-31.421848],[-64.183332,-31.421513],[-64.183646,-31.421431],[-64.184303,-31.421259],[-64.184705,-31.421154],[-64.186053,-31.420801],[-64.186264,-31.420749],[-64.187394,-31.420469],[-64.187439,-31.420456],[-64.187877,-31.420332],[-64.188038,-31.420286],[-64.188169,-31.420245],[-64.188208,-31.420233],[-64.188297,-31.420206],[-64.188431,-31.42015],[-64.188553,-31.4201],[-64.188617,-31.420073],[-64.188664,-31.420053],[-64.188709,-31.420032],[-64.188708,-31.420086],[-64.188709,-31.420103]]}},{"type":"Feature","id":"route-calibrated-06","properties":{"truckId":"vehicle-06","waypointDistancesKm":[0,3.8195771047510765,5.570430903475958,6.638499696261201,8.168322932282745,8.456009885726315,9.640402276921527,11.040518548986208,13.398823736482669,14.877495221022878,15.185687353417174,20.87378785095563]},"geometry":{"type":"LineString","coordinates":[[-64.188709,-31.420109],[-64.18871,-31.420127],[-64.188717,-31.420178],[-64.188727,-31.42023],[-64.188737,-31.420284],[-64.188734,-31.420338],[-64.188686,-31.420476],[-64.188614,-31.420637],[-64.188602,-31.420666],[-64.188216,-31.421509],[-64.188008,-31.421909],[-64.187455,-31.423057],[-64.187282,-31.423421],[-64.187225,-31.42354],[-64.187285,-31.423692],[-64.187532,-31.424318],[-64.18803,-31.425456],[-64.188043,-31.425489],[-64.188058,-31.425523],[-64.188566,-31.426674],[-64.188835,-31.427327],[-64.189333,-31.428574],[-64.189351,-31.428612],[-64.189536,-31.429017],[-64.189748,-31.429515],[-64.189859,-31.429768],[-64.190335,-31.430949],[-64.190402,-31.431119],[-64.190413,-31.431145],[-64.190459,-31.431261],[-64.190704,-31.431885],[-64.191082,-31.432801],[-64.191179,-31.433073],[-64.191209,-31.433172],[-64.191228,-31.433248],[-64.191266,-31.433432],[-64.191377,-31.434038],[-64.19142,-31.434404],[-64.191433,-31.434473],[-64.191489,-31.434808],[-64.191517,-31.434919],[-64.191843,-31.435996],[-64.191965,-31.436379],[-64.191979,-31.436426],[-64.192131,-31.436861],[-64.192205,-31.437022],[-64.192305,-31.437224],[-64.192359,-31.437338],[-64.192421,-31.437521],[-64.192445,-31.437609],[-64.192501,-31.437813],[-64.192511,-31.437874],[-64.19252,-31.437954],[-64.192529,-31.438119],[-64.19252,-31.438233],[-64.192515,-31.438269],[-64.192502,-31.438381],[-64.192466,-31.438532],[-64.192441,-31.438621],[-64.192431,-31.438687],[-64.19242,-31.438842],[-64.192428,-31.438869],[-64.192429,-31.438896],[-64.192422,-31.438923],[-64.192409,-31.438947],[-64.192406,-31.43902],[-64.19241,-31.439091],[-64.192434,-31.439176],[-64.192497,-31.439365],[-64.192711,-31.439949],[-64.1928,-31.440167],[-64.192863,-31.440326],[-64.192956,-31.440561],[-64.192994,-31.440649],[-64.193081,-31.440815],[-64.19312,-31.440887],[-64.193165,-31.440969],[-64.193258,-31.441133],[-64.193429,-31.441414],[-64.193842,-31.442122],[-64.193966,-31.442325],[-64.194024,-31.44242],[-64.19407,-31.442496],[-64.194264,-31.442813],[-64.194361,-31.442979],[-64.194409,-31.443057],[-64.194464,-31.44314],[-64.194511,-31.44321],[-64.194577,-31.44328],[-64.194588,-31.443288],[-64.194613,-31.443312],[-64.194627,-31.443342],[-64.194629,-31.443374],[-64.194618,-31.443406],[-64.194596,-31.443432],[-64.194566,-31.443451],[-64.194529,-31.44346],[-64.194459,-31.443449],[-64.193696,-31.443329],[-64.193522,-31.44331],[-64.193484,-31.443422],[-64.193473,-31.443467],[-64.193447,-31.443617],[-64.193453,-31.443683],[-64.193835,-31.445194],[-64.193981,-31.44578],[-64.193988,-31.445848],[-64.194055,-31.44634],[-64.194064,-31.446398],[-64.194138,-31.446915],[-64.194146,-31.446968],[-64.194306,-31.447952],[-64.194314,-31.448033],[-64.194396,-31.448977],[-64.194443,-31.449496],[-64.194464,-31.449754],[-64.19455,-31.450539],[-64.194784,-31.451428],[-64.194897,-31.451864],[-64.194915,-31.451935],[-64.195068,-31.452468],[-64.195273,-31.453185],[-64.195523,-31.45406],[-64.195799,-31.455088],[-64.195925,-31.455522],[-64.196114,-31.456234],[-64.196254,-31.456748],[-64.196337,-31.457053],[-64.196555,-31.45785],[-64.1967,-31.458383],[-64.196711,-31.458425],[-64.196809,-31.458784],[-64.196836,-31.458882],[-64.19703,-31.459595],[-64.197173,-31.460121],[-64.197392,-31.460926],[-64.19751,-31.461362],[-64.197652,-31.46188],[-64.197903,-31.462803],[-64.19793,-31.462897],[-64.197292,-31.463023],[-64.19608,-31.463267],[-64.194565,-31.463573],[-64.194221,-31.46364],[-64.193941,-31.46364],[-64.193328,-31.463629],[-64.193436,-31.46402],[-64.193545,-31.464415],[-64.192565,-31.464599],[-64.19246,-31.464619],[-64.19232,-31.464075],[-64.192199,-31.463614],[-64.192177,-31.463533],[-64.191897,-31.462487],[-64.191796,-31.462138],[-64.191748,-31.462071],[-64.191694,-31.462039],[-64.191633,-31.462022],[-64.191551,-31.462022],[-64.190855,-31.462156],[-64.190753,-31.462167],[-64.189049,-31.462185],[-64.187627,-31.462195],[-64.187071,-31.462206],[-64.186907,-31.462208],[-64.186815,-31.462209],[-64.186747,-31.462209],[-64.186746,-31.462138],[-64.186744,-31.462037],[-64.186732,-31.461495],[-64.186523,-31.461613],[-64.186461,-31.461622],[-64.186253,-31.461666],[-64.186125,-31.461679],[-64.186055,-31.46168],[-64.184618,-31.461704],[-64.184615,-31.462549],[-64.184602,-31.462581],[-64.184568,-31.4626],[-64.182709,-31.462592],[-64.182662,-31.462577],[-64.182635,-31.462542],[-64.182629,-31.462499],[-64.182657,-31.461748],[-64.182667,-31.461716],[-64.182698,-31.461702],[-64.184618,-31.461704],[-64.186125,-31.461679],[-64.186253,-31.461666],[-64.186461,-31.461622],[-64.186523,-31.461613],[-64.186732,-31.461495],[-64.18672,-31.460804],[-64.186719,-31.460705],[-64.186795,-31.460704],[-64.186796,-31.460804],[-64.186796,-31.461597],[-64.186811,-31.46204],[-64.186813,-31.462129],[-64.186815,-31.462209],[-64.186815,-31.462303],[-64.186815,-31.462553],[-64.186812,-31.463411],[-64.186814,-31.463564],[-64.186815,-31.463647],[-64.186817,-31.463914],[-64.186759,-31.463914],[-64.186761,-31.463563],[-64.186755,-31.463371],[-64.186754,-31.462554],[-64.186751,-31.462422],[-64.186749,-31.462305],[-64.186747,-31.462209],[-64.186746,-31.462138],[-64.186744,-31.462037],[-64.186732,-31.461495],[-64.18672,-31.460804],[-64.186719,-31.460705],[-64.186719,-31.460633],[-64.186722,-31.459835],[-64.186722,-31.459823],[-64.186724,-31.459527],[-64.186725,-31.459452],[-64.186793,-31.459453],[-64.186908,-31.459453],[-64.187017,-31.459453],[-64.187679,-31.459455],[-64.188409,-31.459456],[-64.189041,-31.459458],[-64.189682,-31.459455],[-64.190059,-31.459449],[-64.190076,-31.459489],[-64.190104,-31.45952],[-64.190157,-31.459544],[-64.190137,-31.459651],[-64.190243,-31.460226],[-64.190359,-31.460677],[-64.190552,-31.461413],[-64.192627,-31.461011],[-64.193213,-31.460913],[-64.193827,-31.460791],[-64.194417,-31.460673],[-64.195306,-31.460495],[-64.195963,-31.460363],[-64.19653,-31.46025],[-64.19657,-31.460401],[-64.196858,-31.461483],[-64.196293,-31.461608],[-64.19565,-31.461738],[-64.194155,-31.462038],[-64.193547,-31.462163],[-64.192969,-31.462277],[-64.192354,-31.462398],[-64.192002,-31.462465],[-64.191897,-31.462487],[-64.191095,-31.462646],[-64.191006,-31.462659],[-64.190889,-31.462664],[-64.190697,-31.46266],[-64.190328,-31.462656],[-64.189856,-31.462657],[-64.189244,-31.462659],[-64.18904,-31.462659],[-64.188922,-31.462659],[-64.188609,-31.46266],[-64.188549,-31.46265],[-64.188389,-31.462564],[-64.188323,-31.462544],[-64.187629,-31.462546],[-64.187071,-31.462551],[-64.186815,-31.462553],[-64.186812,-31.463411],[-64.186814,-31.463564],[-64.186815,-31.463647],[-64.186817,-31.463914],[-64.186759,-31.463914],[-64.186663,-31.463894],[-64.186621,-31.463874],[-64.186587,-31.463819],[-64.186564,-31.463757],[-64.186547,-31.463685],[-64.186393,-31.463688],[-64.186183,-31.463698],[-64.186174,-31.463596],[-64.18617,-31.46355],[-64.186135,-31.463499],[-64.18604,-31.463485],[-64.185557,-31.463488],[-64.18223,-31.463507],[-64.182187,-31.463519],[-64.182145,-31.463556],[-64.182129,-31.463608],[-64.182122,-31.464728],[-64.182132,-31.46478],[-64.182236,-31.464917],[-64.182266,-31.464985],[-64.182283,-31.467267],[-64.182295,-31.467329],[-64.182337,-31.46737],[-64.182545,-31.46762],[-64.182594,-31.467763],[-64.183401,-31.467659],[-64.184029,-31.467577],[-64.184581,-31.467505],[-64.184681,-31.467492],[-64.18474,-31.467485],[-64.184842,-31.467471],[-64.184997,-31.46745],[-64.185101,-31.467423],[-64.185191,-31.46739],[-64.185363,-31.467254],[-64.185998,-31.466738],[-64.186099,-31.466642],[-64.186142,-31.466589],[-64.186177,-31.466525],[-64.186199,-31.466454],[-64.186306,-31.465827],[-64.186402,-31.46537],[-64.186412,-31.465332],[-64.186433,-31.465289],[-64.186464,-31.465259],[-64.186505,-31.46524],[-64.186555,-31.465227],[-64.186621,-31.465223],[-64.186789,-31.465219],[-64.186791,-31.465143],[-64.186879,-31.465193],[-64.186952,-31.465224],[-64.187012,-31.465225],[-64.187056,-31.465234],[-64.187095,-31.465248],[-64.187128,-31.465275],[-64.187152,-31.465301],[-64.187175,-31.46533],[-64.188307,-31.46536],[-64.188783,-31.465406],[-64.189219,-31.465413],[-64.189575,-31.465402],[-64.189808,-31.465394],[-64.190066,-31.465389],[-64.190781,-31.465371],[-64.191519,-31.465321],[-64.191605,-31.465307],[-64.192588,-31.465111],[-64.192693,-31.465091],[-64.193342,-31.464962],[-64.193675,-31.464895],[-64.194245,-31.464781],[-64.194535,-31.464723],[-64.194858,-31.464626],[-64.196922,-31.464216],[-64.19802,-31.463998],[-64.198217,-31.463959],[-64.198119,-31.463599],[-64.19793,-31.462897],[-64.197903,-31.462803],[-64.197652,-31.46188],[-64.19751,-31.461362],[-64.197392,-31.460926],[-64.197173,-31.460121],[-64.19703,-31.459595],[-64.196836,-31.458882],[-64.196809,-31.458784],[-64.196711,-31.458425],[-64.1967,-31.458383],[-64.196555,-31.45785],[-64.196337,-31.457053],[-64.196254,-31.456748],[-64.196114,-31.456234],[-64.19759,-31.455956],[-64.197915,-31.45589],[-64.19834,-31.455809],[-64.198256,-31.455506],[-64.198133,-31.455039],[-64.198052,-31.455077],[-64.197947,-31.455108],[-64.196438,-31.455417],[-64.195925,-31.455522],[-64.195799,-31.455088],[-64.195165,-31.455216],[-64.194885,-31.454241],[-64.194864,-31.454222],[-64.194826,-31.454219],[-64.194534,-31.454279],[-64.19425,-31.454338],[-64.194535,-31.455341],[-64.195165,-31.455216],[-64.195799,-31.455088],[-64.195523,-31.45406],[-64.195273,-31.453185],[-64.195068,-31.452468],[-64.194915,-31.451935],[-64.194784,-31.451428],[-64.19455,-31.450539],[-64.194464,-31.449754],[-64.194443,-31.449496],[-64.194396,-31.448977],[-64.194314,-31.448033],[-64.194306,-31.447952],[-64.194146,-31.446968],[-64.194138,-31.446915],[-64.194064,-31.446398],[-64.194055,-31.44634],[-64.193988,-31.445848],[-64.193981,-31.44578],[-64.193835,-31.445194],[-64.193453,-31.443683],[-64.193447,-31.443617],[-64.193473,-31.443467],[-64.193484,-31.443422],[-64.193522,-31.44331],[-64.192111,-31.443148],[-64.191982,-31.443132],[-64.190327,-31.442935],[-64.189985,-31.442894],[-64.188131,-31.442674],[-64.187811,-31.442636],[-64.187592,-31.442611],[-64.18725,-31.442552],[-64.187161,-31.442529],[-64.18709,-31.442517],[-64.187025,-31.442511],[-64.186965,-31.442509],[-64.186815,-31.442508],[-64.186773,-31.442523],[-64.186728,-31.442528],[-64.186682,-31.442525],[-64.186639,-31.442513],[-64.1866,-31.442493],[-64.183781,-31.442188],[-64.18331,-31.442142],[-64.183161,-31.442095],[-64.18305,-31.442049],[-64.182925,-31.441983],[-64.182823,-31.441922],[-64.182759,-31.441875],[-64.182744,-31.441863],[-64.18268,-31.44181],[-64.182616,-31.44174],[-64.182493,-31.441538],[-64.182419,-31.441361],[-64.182372,-31.441239],[-64.182307,-31.441066],[-64.181883,-31.440088],[-64.181799,-31.439882],[-64.181756,-31.439783],[-64.181702,-31.439672],[-64.181515,-31.439229],[-64.181388,-31.438911],[-64.181373,-31.438876],[-64.181346,-31.438808],[-64.181111,-31.438223],[-64.181086,-31.438079],[-64.181078,-31.437994],[-64.181075,-31.437909],[-64.181076,-31.437816],[-64.181084,-31.437645],[-64.181107,-31.437522],[-64.181125,-31.437454],[-64.181151,-31.437375],[-64.181183,-31.437304],[-64.181227,-31.437215],[-64.182275,-31.435222],[-64.183347,-31.433231],[-64.183391,-31.43313],[-64.183416,-31.433064],[-64.183433,-31.432979],[-64.183464,-31.432825],[-64.183492,-31.432724],[-64.183489,-31.432677],[-64.183495,-31.43262],[-64.183511,-31.432569],[-64.183535,-31.432501],[-64.183559,-31.432455],[-64.18359,-31.43241],[-64.183617,-31.432382],[-64.183652,-31.432354],[-64.183684,-31.432341],[-64.183921,-31.432102],[-64.184009,-31.431992],[-64.184068,-31.431892],[-64.184142,-31.431752],[-64.184189,-31.431637],[-64.184228,-31.431497],[-64.184246,-31.431357],[-64.18425,-31.431247],[-64.184247,-31.431158],[-64.184219,-31.431005],[-64.184176,-31.430833],[-64.184122,-31.430619],[-64.184064,-31.430391],[-64.184046,-31.430283],[-64.184039,-31.43016],[-64.184053,-31.430021],[-64.184084,-31.42987],[-64.184119,-31.429751],[-64.18416,-31.429639],[-64.184389,-31.429162],[-64.184486,-31.42895],[-64.184531,-31.428823],[-64.184574,-31.428688],[-64.184593,-31.428498],[-64.184597,-31.428466],[-64.184597,-31.428295],[-64.184584,-31.428142],[-64.184586,-31.428003],[-64.184583,-31.42789],[-64.184574,-31.42781],[-64.184497,-31.427531],[-64.184138,-31.426736],[-64.183868,-31.42612],[-64.183698,-31.425727],[-64.18366,-31.425634],[-64.183634,-31.425568],[-64.183584,-31.425459],[-64.183377,-31.424998],[-64.183133,-31.424414],[-64.182911,-31.423881],[-64.182874,-31.423795],[-64.182631,-31.423252],[-64.182244,-31.42231],[-64.182096,-31.421946],[-64.182055,-31.421848],[-64.183332,-31.421513],[-64.183646,-31.421431],[-64.184303,-31.421259],[-64.184705,-31.421154],[-64.186053,-31.420801],[-64.186264,-31.420749],[-64.187394,-31.420469],[-64.187439,-31.420456],[-64.187877,-31.420332],[-64.188038,-31.420286],[-64.188169,-31.420245],[-64.188208,-31.420233],[-64.188297,-31.420206],[-64.188431,-31.42015],[-64.188553,-31.4201],[-64.188617,-31.420073],[-64.188664,-31.420053],[-64.188709,-31.420032],[-64.188708,-31.420086],[-64.188709,-31.420103]]}},{"type":"Feature","id":"route-calibrated-07","properties":{"truckId":"vehicle-07","waypointDistancesKm":[0,5.289078214475289,6.173041438057389,8.13889919339239,11.704273547778012,12.470041825515375,16.516084109412027,17.73504471443418,24.273766552932166]},"geometry":{"type":"LineString","coordinates":[[-64.188709,-31.420109],[-64.18871,-31.420127],[-64.188717,-31.420178],[-64.188727,-31.42023],[-64.188737,-31.420284],[-64.188734,-31.420338],[-64.188686,-31.420476],[-64.188614,-31.420637],[-64.188602,-31.420666],[-64.188216,-31.421509],[-64.188139,-31.421536],[-64.187971,-31.421596],[-64.187883,-31.421621],[-64.186582,-31.422025],[-64.187051,-31.423184],[-64.187348,-31.423089],[-64.187455,-31.423057],[-64.18837,-31.422766],[-64.189743,-31.422336],[-64.191026,-31.421953],[-64.191681,-31.421802],[-64.192042,-31.421714],[-64.192103,-31.421747],[-64.192116,-31.421753],[-64.192669,-31.422089],[-64.192782,-31.422189],[-64.192844,-31.422266],[-64.192874,-31.422319],[-64.193034,-31.422629],[-64.193039,-31.422638],[-64.193065,-31.422687],[-64.19309,-31.422744],[-64.193094,-31.422754],[-64.193529,-31.423727],[-64.193534,-31.423741],[-64.193557,-31.423803],[-64.193576,-31.423844],[-64.19358,-31.423853],[-64.194015,-31.424875],[-64.194019,-31.424886],[-64.194046,-31.424949],[-64.194074,-31.42502],[-64.194079,-31.425033],[-64.194292,-31.425566],[-64.194297,-31.425579],[-64.194324,-31.425646],[-64.194348,-31.425705],[-64.194353,-31.425718],[-64.194486,-31.426047],[-64.194489,-31.426054],[-64.194506,-31.426099],[-64.194523,-31.426142],[-64.194526,-31.42615],[-64.194601,-31.426349],[-64.194737,-31.426671],[-64.194821,-31.426884],[-64.194834,-31.426914],[-64.194872,-31.427],[-64.194924,-31.427119],[-64.194932,-31.427138],[-64.195152,-31.4276],[-64.195204,-31.427683],[-64.195251,-31.42774],[-64.195305,-31.427805],[-64.19541,-31.427897],[-64.195498,-31.427967],[-64.19614,-31.428382],[-64.196265,-31.428465],[-64.196539,-31.428652],[-64.196629,-31.428722],[-64.196935,-31.429001],[-64.197075,-31.429137],[-64.197196,-31.429264],[-64.197784,-31.429899],[-64.197871,-31.429989],[-64.198034,-31.43015],[-64.198077,-31.430196],[-64.198101,-31.430238],[-64.198134,-31.430307],[-64.19829,-31.430768],[-64.198349,-31.430935],[-64.198402,-31.431058],[-64.198483,-31.431203],[-64.198534,-31.431278],[-64.198583,-31.431335],[-64.198659,-31.431396],[-64.198761,-31.431446],[-64.198866,-31.431488],[-64.198997,-31.431528],[-64.199125,-31.431558],[-64.199746,-31.431662],[-64.199876,-31.431681],[-64.200222,-31.431729],[-64.200505,-31.431788],[-64.200603,-31.431832],[-64.200684,-31.431881],[-64.200756,-31.431967],[-64.200808,-31.432042],[-64.200834,-31.432094],[-64.200895,-31.432257],[-64.200908,-31.43233],[-64.200907,-31.432378],[-64.200873,-31.432773],[-64.200871,-31.432855],[-64.200881,-31.432937],[-64.200986,-31.433355],[-64.201066,-31.433645],[-64.201099,-31.433745],[-64.201132,-31.433807],[-64.201459,-31.434198],[-64.201474,-31.434216],[-64.201556,-31.434287],[-64.20162,-31.434331],[-64.202098,-31.434612],[-64.202624,-31.434871],[-64.20276,-31.434918],[-64.202836,-31.434929],[-64.202912,-31.434931],[-64.203247,-31.434883],[-64.203257,-31.434923],[-64.203276,-31.434996],[-64.203298,-31.435081],[-64.203306,-31.435115],[-64.203453,-31.43574],[-64.203601,-31.436293],[-64.203643,-31.436434],[-64.203739,-31.43647],[-64.203801,-31.436484],[-64.203972,-31.436499],[-64.204752,-31.436583],[-64.204959,-31.436597],[-64.205089,-31.436622],[-64.205216,-31.436659],[-64.205491,-31.436752],[-64.20572,-31.436849],[-64.205886,-31.436928],[-64.206539,-31.43739],[-64.206573,-31.437433],[-64.206598,-31.437487],[-64.206714,-31.43792],[-64.206737,-31.437985],[-64.206782,-31.438038],[-64.207464,-31.438735],[-64.207503,-31.438791],[-64.207531,-31.438837],[-64.207819,-31.439779],[-64.207986,-31.440354],[-64.208169,-31.441],[-64.208335,-31.441608],[-64.208503,-31.442209],[-64.208671,-31.44281],[-64.208837,-31.443405],[-64.208847,-31.443439],[-64.209013,-31.444036],[-64.209186,-31.444652],[-64.209329,-31.445164],[-64.210244,-31.445276],[-64.210814,-31.445345],[-64.211118,-31.445382],[-64.211296,-31.445404],[-64.211294,-31.445422],[-64.211292,-31.445448],[-64.211291,-31.445466],[-64.211264,-31.445517],[-64.21124,-31.445586],[-64.211241,-31.445598],[-64.211246,-31.44566],[-64.211295,-31.44571],[-64.211387,-31.44576],[-64.211417,-31.445813],[-64.211438,-31.445852],[-64.211452,-31.445888],[-64.211631,-31.446494],[-64.211733,-31.446862],[-64.211788,-31.447055],[-64.211823,-31.447179],[-64.211939,-31.447593],[-64.212092,-31.448119],[-64.212257,-31.448676],[-64.212411,-31.449216],[-64.212562,-31.449739],[-64.212721,-31.45029],[-64.212885,-31.450858],[-64.21448,-31.45054],[-64.214712,-31.450494],[-64.216522,-31.450126],[-64.216676,-31.45067],[-64.217251,-31.452677],[-64.217428,-31.453302],[-64.21805,-31.453184],[-64.218286,-31.453197],[-64.219962,-31.452683],[-64.220215,-31.452631],[-64.220191,-31.452537],[-64.220129,-31.452234],[-64.220077,-31.451985],[-64.220073,-31.451942],[-64.220086,-31.451907],[-64.220104,-31.451888],[-64.220139,-31.451869],[-64.22069,-31.451752],[-64.22075,-31.451752],[-64.220795,-31.451766],[-64.220823,-31.451789],[-64.22083,-31.451819],[-64.220815,-31.451885],[-64.220616,-31.452488],[-64.220587,-31.452539],[-64.220547,-31.452567],[-64.220489,-31.452588],[-64.220215,-31.452631],[-64.219962,-31.452683],[-64.218286,-31.453197],[-64.21807,-31.453271],[-64.217997,-31.453284],[-64.217776,-31.453327],[-64.217636,-31.453346],[-64.217452,-31.453382],[-64.217605,-31.453976],[-64.217981,-31.455366],[-64.218336,-31.456552],[-64.218358,-31.456624],[-64.218394,-31.456745],[-64.218442,-31.45694],[-64.218535,-31.45731],[-64.218667,-31.457893],[-64.220594,-31.457217],[-64.22225,-31.456638],[-64.224005,-31.456016],[-64.224063,-31.455984],[-64.224118,-31.455941],[-64.224669,-31.456138],[-64.225477,-31.455345],[-64.225651,-31.455166],[-64.225677,-31.455142],[-64.225788,-31.45504],[-64.224902,-31.454044],[-64.224766,-31.453894],[-64.223794,-31.452825],[-64.223539,-31.452869],[-64.223401,-31.452886],[-64.223245,-31.452906],[-64.22163,-31.45293],[-64.22149,-31.453404],[-64.221336,-31.453872],[-64.221186,-31.454354],[-64.221152,-31.454421],[-64.220995,-31.454692],[-64.220938,-31.454773],[-64.22081,-31.454907],[-64.220449,-31.455278],[-64.220091,-31.455663],[-64.219713,-31.456069],[-64.219461,-31.456353],[-64.21875,-31.457156],[-64.218719,-31.457199],[-64.218683,-31.457272],[-64.218535,-31.45731],[-64.218442,-31.45694],[-64.218394,-31.456745],[-64.218358,-31.456624],[-64.218336,-31.456552],[-64.217981,-31.455366],[-64.217605,-31.453976],[-64.217452,-31.453382],[-64.217428,-31.453302],[-64.217251,-31.452677],[-64.216676,-31.45067],[-64.216522,-31.450126],[-64.216376,-31.449582],[-64.216232,-31.449039],[-64.216084,-31.448502],[-64.215942,-31.447969],[-64.215912,-31.447862],[-64.215786,-31.447404],[-64.215645,-31.446864],[-64.215594,-31.446674],[-64.215502,-31.446422],[-64.2155,-31.446418],[-64.215488,-31.446394],[-64.215472,-31.446369],[-64.215447,-31.446338],[-64.215442,-31.446335],[-64.215432,-31.446327],[-64.215416,-31.446294],[-64.21541,-31.446275],[-64.215402,-31.446241],[-64.215384,-31.446164],[-64.215374,-31.446143],[-64.215343,-31.446092],[-64.215325,-31.446065],[-64.215293,-31.446026],[-64.215262,-31.445997],[-64.215216,-31.445974],[-64.215167,-31.445956],[-64.215127,-31.44594],[-64.214872,-31.445858],[-64.214805,-31.445841],[-64.214759,-31.445817],[-64.21472,-31.445785],[-64.21469,-31.445747],[-64.214671,-31.445705],[-64.214663,-31.445662],[-64.214666,-31.445614],[-64.214681,-31.44557],[-64.214712,-31.445524],[-64.214756,-31.445486],[-64.214834,-31.445384],[-64.214862,-31.445346],[-64.214929,-31.445232],[-64.21496,-31.445124],[-64.214975,-31.444938],[-64.214917,-31.44469],[-64.214906,-31.444642],[-64.214899,-31.444616],[-64.214887,-31.444569],[-64.214497,-31.443063],[-64.214478,-31.442991],[-64.214457,-31.442907],[-64.21418,-31.441783],[-64.214162,-31.44171],[-64.214147,-31.44165],[-64.214031,-31.441187],[-64.214014,-31.441119],[-64.214007,-31.44108],[-64.213991,-31.441018],[-64.213911,-31.4407],[-64.213915,-31.440665],[-64.21393,-31.440635],[-64.213957,-31.440614],[-64.214012,-31.440598],[-64.214909,-31.440415],[-64.215042,-31.440358],[-64.215081,-31.440326],[-64.215115,-31.44028],[-64.215148,-31.440228],[-64.215169,-31.440181],[-64.21519,-31.440084],[-64.215189,-31.43993],[-64.215187,-31.439744],[-64.215186,-31.439706],[-64.215183,-31.439614],[-64.215263,-31.439643],[-64.215845,-31.439891],[-64.216372,-31.440116],[-64.216446,-31.440139],[-64.216549,-31.440159],[-64.216632,-31.440158],[-64.217144,-31.440143],[-64.217262,-31.440154],[-64.217367,-31.440174],[-64.217467,-31.440207],[-64.21759,-31.440259],[-64.217705,-31.440324],[-64.218244,-31.440738],[-64.218417,-31.440873],[-64.218536,-31.440938],[-64.218636,-31.440982],[-64.218707,-31.440993],[-64.21883,-31.440994],[-64.219287,-31.440975],[-64.219408,-31.440981],[-64.219529,-31.440991],[-64.21966,-31.441014],[-64.219781,-31.441046],[-64.219972,-31.44111],[-64.220133,-31.441185],[-64.220303,-31.441297],[-64.220425,-31.441393],[-64.220539,-31.441511],[-64.221207,-31.442425],[-64.221271,-31.442431],[-64.221334,-31.442438],[-64.221528,-31.442499],[-64.221626,-31.442514],[-64.221791,-31.442517],[-64.222073,-31.44252],[-64.222718,-31.442519],[-64.223357,-31.442519],[-64.224176,-31.442518],[-64.224176,-31.440249],[-64.224393,-31.44025],[-64.224977,-31.440251],[-64.224979,-31.439655],[-64.224982,-31.439119],[-64.224983,-31.438551],[-64.224987,-31.437467],[-64.22499,-31.436924],[-64.22419,-31.436928],[-64.223359,-31.436925],[-64.222736,-31.436925],[-64.222095,-31.436926],[-64.221404,-31.436923],[-64.221327,-31.436923],[-64.219885,-31.436907],[-64.219271,-31.436899],[-64.218683,-31.436895],[-64.218114,-31.436893],[-64.217686,-31.436894],[-64.216672,-31.436894],[-64.216615,-31.43689],[-64.216553,-31.436871],[-64.21637,-31.436704],[-64.215819,-31.43613],[-64.215113,-31.435412],[-64.215019,-31.436647],[-64.215021,-31.436765],[-64.21503,-31.436864],[-64.215085,-31.437263],[-64.215093,-31.437372],[-64.215148,-31.438248],[-64.215178,-31.43875],[-64.215183,-31.439614],[-64.215186,-31.439706],[-64.215187,-31.439744],[-64.215189,-31.43993],[-64.21519,-31.440084],[-64.215169,-31.440181],[-64.215148,-31.440228],[-64.215115,-31.44028],[-64.215081,-31.440326],[-64.215042,-31.440358],[-64.214909,-31.440415],[-64.214012,-31.440598],[-64.213957,-31.440614],[-64.21393,-31.440635],[-64.213915,-31.440665],[-64.213911,-31.4407],[-64.213991,-31.441018],[-64.214007,-31.44108],[-64.214014,-31.441119],[-64.214031,-31.441187],[-64.214147,-31.44165],[-64.214162,-31.44171],[-64.21418,-31.441783],[-64.214457,-31.442907],[-64.214478,-31.442991],[-64.214497,-31.443063],[-64.214887,-31.444569],[-64.214899,-31.444616],[-64.214906,-31.444642],[-64.214917,-31.44469],[-64.214975,-31.444938],[-64.215029,-31.445087],[-64.215035,-31.445123],[-64.215039,-31.445179],[-64.21504,-31.445229],[-64.215041,-31.44529],[-64.215045,-31.445335],[-64.215045,-31.445346],[-64.215048,-31.445385],[-64.215115,-31.445538],[-64.215142,-31.445589],[-64.215153,-31.445644],[-64.21525,-31.445878],[-64.21526,-31.445901],[-64.215265,-31.445912],[-64.215273,-31.445927],[-64.215325,-31.446065],[-64.215343,-31.446092],[-64.215374,-31.446143],[-64.215384,-31.446164],[-64.215412,-31.446188],[-64.215442,-31.446216],[-64.215461,-31.446228],[-64.215486,-31.446244],[-64.215503,-31.446258],[-64.215581,-31.446274],[-64.216532,-31.446398],[-64.216741,-31.446422],[-64.217024,-31.446451],[-64.21755,-31.446521],[-64.218357,-31.446612],[-64.21872,-31.44665],[-64.21946,-31.446733],[-64.221597,-31.446992],[-64.222905,-31.447155],[-64.2231,-31.447189],[-64.223288,-31.44723],[-64.223488,-31.447281],[-64.223694,-31.447346],[-64.223937,-31.44743],[-64.22439,-31.447597],[-64.224695,-31.447713],[-64.2251,-31.447869],[-64.225073,-31.447919],[-64.225056,-31.44795],[-64.225037,-31.447984],[-64.225007,-31.448014],[-64.224957,-31.448043],[-64.224911,-31.448057],[-64.224884,-31.44806],[-64.224869,-31.448279],[-64.224858,-31.448402],[-64.224797,-31.448968],[-64.224698,-31.448961],[-64.224174,-31.448977],[-64.224084,-31.44899],[-64.223978,-31.449032],[-64.223117,-31.449478],[-64.223077,-31.449516],[-64.223055,-31.449555],[-64.223039,-31.449604],[-64.223023,-31.449698],[-64.223041,-31.449714],[-64.223052,-31.449735],[-64.223054,-31.449758],[-64.223047,-31.44978],[-64.223031,-31.449799],[-64.223009,-31.449812],[-64.222983,-31.449817],[-64.222956,-31.449815],[-64.222932,-31.449805],[-64.222913,-31.449788],[-64.222903,-31.44977],[-64.2229,-31.449749],[-64.222904,-31.449729],[-64.222915,-31.449711],[-64.222932,-31.449697],[-64.222954,-31.449688],[-64.222978,-31.449685],[-64.223001,-31.449688],[-64.223023,-31.449698],[-64.223039,-31.449604],[-64.223055,-31.449555],[-64.223077,-31.449516],[-64.223117,-31.449478],[-64.223978,-31.449032],[-64.224084,-31.44899],[-64.224174,-31.448977],[-64.224698,-31.448961],[-64.224797,-31.448968],[-64.224756,-31.449151],[-64.224713,-31.449382],[-64.224683,-31.449637],[-64.224675,-31.449745],[-64.224594,-31.450566],[-64.224655,-31.450578],[-64.224886,-31.450656],[-64.224994,-31.450703],[-64.225084,-31.450763],[-64.226305,-31.451747],[-64.226614,-31.452024],[-64.226811,-31.452224],[-64.226827,-31.452255],[-64.226833,-31.452289],[-64.226821,-31.452314],[-64.226787,-31.452333],[-64.225453,-31.452513],[-64.22537,-31.452519],[-64.225308,-31.452508],[-64.22524,-31.452489],[-64.225192,-31.452466],[-64.224467,-31.451892],[-64.22441,-31.451861],[-64.224354,-31.451846],[-64.224289,-31.451849],[-64.224245,-31.451863],[-64.223374,-31.452242],[-64.223309,-31.452256],[-64.223271,-31.452251],[-64.22323,-31.452235],[-64.223197,-31.452208],[-64.222454,-31.45143],[-64.222438,-31.451389],[-64.222438,-31.451364],[-64.222446,-31.451332],[-64.222476,-31.451304],[-64.222612,-31.451243],[-64.223894,-31.450669],[-64.223973,-31.450639],[-64.224097,-31.450603],[-64.22428,-31.45058],[-64.22448,-31.450564],[-64.224594,-31.450566],[-64.224675,-31.449745],[-64.224683,-31.449637],[-64.224713,-31.449382],[-64.224698,-31.448961],[-64.22475,-31.448392],[-64.224758,-31.448273],[-64.224767,-31.448047],[-64.224725,-31.448026],[-64.224689,-31.447999],[-64.22466,-31.447965],[-64.224641,-31.447927],[-64.224631,-31.447886],[-64.224633,-31.447845],[-64.224644,-31.447804],[-64.224664,-31.447768],[-64.223677,-31.447404],[-64.223406,-31.447318],[-64.223175,-31.447263],[-64.222971,-31.447225],[-64.222726,-31.447188],[-64.222388,-31.447148],[-64.217632,-31.44659],[-64.216739,-31.446478],[-64.215675,-31.446348],[-64.215632,-31.446342],[-64.215598,-31.446336],[-64.215537,-31.44633],[-64.215523,-31.446345],[-64.215508,-31.446354],[-64.215487,-31.446354],[-64.21547,-31.44635],[-64.215447,-31.446338],[-64.215442,-31.446335],[-64.215432,-31.446327],[-64.215416,-31.446294],[-64.21541,-31.446275],[-64.215402,-31.446241],[-64.215384,-31.446164],[-64.215374,-31.446143],[-64.215343,-31.446092],[-64.215325,-31.446065],[-64.215293,-31.446026],[-64.215262,-31.445997],[-64.215216,-31.445974],[-64.215167,-31.445956],[-64.215127,-31.44594],[-64.214872,-31.445858],[-64.214805,-31.445841],[-64.214759,-31.445817],[-64.21472,-31.445785],[-64.21469,-31.445747],[-64.214671,-31.445705],[-64.214663,-31.445662],[-64.214666,-31.445614],[-64.214681,-31.44557],[-64.214712,-31.445524],[-64.214756,-31.445486],[-64.214834,-31.445384],[-64.214862,-31.445346],[-64.214929,-31.445232],[-64.21496,-31.445124],[-64.214975,-31.444938],[-64.214917,-31.44469],[-64.214906,-31.444642],[-64.214899,-31.444616],[-64.214887,-31.444569],[-64.214497,-31.443063],[-64.214478,-31.442991],[-64.214457,-31.442907],[-64.21418,-31.441783],[-64.214162,-31.44171],[-64.214147,-31.44165],[-64.214031,-31.441187],[-64.214014,-31.441119],[-64.214007,-31.44108],[-64.213947,-31.441026],[-64.213834,-31.440941],[-64.212743,-31.440177],[-64.212008,-31.439663],[-64.211314,-31.439178],[-64.210878,-31.438873],[-64.210455,-31.438577],[-64.210003,-31.43828],[-64.209566,-31.438594],[-64.209469,-31.438655],[-64.209411,-31.438688],[-64.209327,-31.43871],[-64.209205,-31.438728],[-64.209037,-31.438737],[-64.208893,-31.438724],[-64.208792,-31.438698],[-64.208678,-31.438653],[-64.208513,-31.438583],[-64.208363,-31.438507],[-64.207769,-31.438128],[-64.207714,-31.438081],[-64.20767,-31.43803],[-64.207583,-31.43789],[-64.207286,-31.437342],[-64.207223,-31.43722],[-64.207173,-31.437086],[-64.207122,-31.436942],[-64.207054,-31.436706],[-64.206926,-31.43626],[-64.206892,-31.436154],[-64.206865,-31.436101],[-64.206818,-31.436052],[-64.206503,-31.43576],[-64.206094,-31.435313],[-64.206019,-31.435237],[-64.205959,-31.435177],[-64.205394,-31.434587],[-64.205335,-31.434544],[-64.205287,-31.434523],[-64.205223,-31.434501],[-64.205153,-31.434494],[-64.205071,-31.434493],[-64.20497,-31.434504],[-64.204216,-31.43465],[-64.204075,-31.434688],[-64.203983,-31.434733],[-64.203856,-31.434814],[-64.203589,-31.435027],[-64.203533,-31.435058],[-64.203469,-31.43508],[-64.203306,-31.435115],[-64.203045,-31.435172],[-64.202952,-31.435181],[-64.202856,-31.435179],[-64.202747,-31.435165],[-64.202622,-31.435137],[-64.202332,-31.43502],[-64.201707,-31.434694],[-64.201622,-31.434643],[-64.201532,-31.434583],[-64.201466,-31.434534],[-64.201407,-31.434481],[-64.201256,-31.434322],[-64.201207,-31.43427],[-64.200968,-31.43402],[-64.200929,-31.433968],[-64.200906,-31.433925],[-64.200847,-31.433799],[-64.200779,-31.433612],[-64.200711,-31.433404],[-64.200648,-31.433116],[-64.200617,-31.43295],[-64.200611,-31.432844],[-64.200617,-31.432737],[-64.200652,-31.432472],[-64.200652,-31.432375],[-64.200632,-31.432298],[-64.200599,-31.432232],[-64.200561,-31.432171],[-64.200513,-31.432126],[-64.200434,-31.432057],[-64.200364,-31.432017],[-64.200257,-31.431971],[-64.200138,-31.431947],[-64.199775,-31.431897],[-64.198876,-31.43178],[-64.198753,-31.431761],[-64.19864,-31.431725],[-64.198559,-31.431686],[-64.198461,-31.43163],[-64.198391,-31.431574],[-64.198335,-31.431502],[-64.198294,-31.431442],[-64.198256,-31.43136],[-64.198024,-31.43079],[-64.197892,-31.430399],[-64.197859,-31.430339],[-64.197766,-31.430222],[-64.19772,-31.430175],[-64.19767,-31.430127],[-64.196791,-31.429206],[-64.19662,-31.42904],[-64.196529,-31.42896],[-64.196448,-31.428894],[-64.195986,-31.428565],[-64.195912,-31.428519],[-64.195848,-31.428485],[-64.19576,-31.428451],[-64.195466,-31.428351],[-64.195389,-31.428319],[-64.195302,-31.428264],[-64.195205,-31.428173],[-64.195085,-31.428041],[-64.194904,-31.427809],[-64.19487,-31.427751],[-64.194839,-31.42769],[-64.194683,-31.427291],[-64.194557,-31.426984],[-64.19455,-31.426967],[-64.194509,-31.426863],[-64.194478,-31.426787],[-64.194469,-31.426766],[-64.194257,-31.426227],[-64.194255,-31.426221],[-64.194239,-31.42618],[-64.19422,-31.426133],[-64.194217,-31.426124],[-64.194076,-31.425803],[-64.194072,-31.425793],[-64.194044,-31.425728],[-64.194016,-31.425659],[-64.194012,-31.425649],[-64.193799,-31.425129],[-64.193794,-31.425118],[-64.193764,-31.425045],[-64.193737,-31.424979],[-64.193732,-31.424969],[-64.193303,-31.423935],[-64.1933,-31.423927],[-64.19328,-31.423877],[-64.193257,-31.423821],[-64.193252,-31.423808],[-64.193046,-31.423323],[-64.19301,-31.423229],[-64.192822,-31.422835],[-64.192817,-31.422826],[-64.192787,-31.422763],[-64.192763,-31.42271],[-64.192758,-31.422699],[-64.192698,-31.422564],[-64.192573,-31.422383],[-64.192455,-31.422273],[-64.192403,-31.42223],[-64.192332,-31.42218],[-64.191757,-31.421847],[-64.191748,-31.421842],[-64.191681,-31.421802],[-64.19163,-31.421772],[-64.191615,-31.421762],[-64.190716,-31.421211],[-64.190627,-31.421142],[-64.190514,-31.42103],[-64.190452,-31.420938],[-64.19044,-31.420922],[-64.190435,-31.420913],[-64.19041,-31.420877],[-64.19039,-31.420832],[-64.190385,-31.420821],[-64.190038,-31.420001],[-64.190031,-31.419983],[-64.190007,-31.419899],[-64.189976,-31.419802],[-64.189956,-31.419714],[-64.189951,-31.419695],[-64.189855,-31.419325],[-64.189817,-31.419043],[-64.18966,-31.418461],[-64.189595,-31.418267],[-64.189097,-31.417094],[-64.189089,-31.417076],[-64.189049,-31.417087],[-64.18777,-31.417441],[-64.187673,-31.417469],[-64.18769,-31.41751],[-64.188184,-31.418665],[-64.188568,-31.419564],[-64.188701,-31.419841],[-64.188713,-31.419861],[-64.188728,-31.419891],[-64.188735,-31.419927],[-64.188737,-31.419959],[-64.188733,-31.419976],[-64.188728,-31.419991],[-64.188709,-31.420032],[-64.188708,-31.420086],[-64.188709,-31.420103]]}},{"type":"Feature","id":"route-calibrated-08","properties":{"truckId":"vehicle-08","waypointDistancesKm":[0,7.641985664606793,9.435831679283483,10.08913263436893,11.942793768358559,13.730785453358823,16.442185101378605,18.600321205710156,24.24066177802193]},"geometry":{"type":"LineString","coordinates":[[-64.188709,-31.420109],[-64.18871,-31.420127],[-64.188717,-31.420178],[-64.188727,-31.42023],[-64.188737,-31.420284],[-64.188734,-31.420338],[-64.188686,-31.420476],[-64.188614,-31.420637],[-64.188602,-31.420666],[-64.188216,-31.421509],[-64.188139,-31.421536],[-64.187971,-31.421596],[-64.187883,-31.421621],[-64.186582,-31.422025],[-64.187051,-31.423184],[-64.187348,-31.423089],[-64.187455,-31.423057],[-64.18837,-31.422766],[-64.189743,-31.422336],[-64.191026,-31.421953],[-64.191681,-31.421802],[-64.192042,-31.421714],[-64.192103,-31.421747],[-64.192116,-31.421753],[-64.192669,-31.422089],[-64.192782,-31.422189],[-64.192844,-31.422266],[-64.192874,-31.422319],[-64.193034,-31.422629],[-64.193039,-31.422638],[-64.193065,-31.422687],[-64.19309,-31.422744],[-64.193094,-31.422754],[-64.193529,-31.423727],[-64.193534,-31.423741],[-64.193557,-31.423803],[-64.193576,-31.423844],[-64.19358,-31.423853],[-64.194015,-31.424875],[-64.194019,-31.424886],[-64.194046,-31.424949],[-64.194074,-31.42502],[-64.194079,-31.425033],[-64.194292,-31.425566],[-64.194297,-31.425579],[-64.194324,-31.425646],[-64.194348,-31.425705],[-64.194353,-31.425718],[-64.194486,-31.426047],[-64.194489,-31.426054],[-64.194506,-31.426099],[-64.194523,-31.426142],[-64.194526,-31.42615],[-64.194601,-31.426349],[-64.194737,-31.426671],[-64.194821,-31.426884],[-64.194834,-31.426914],[-64.194872,-31.427],[-64.195274,-31.427165],[-64.196639,-31.42792],[-64.197254,-31.428218],[-64.197381,-31.42827],[-64.197483,-31.428302],[-64.19764,-31.428351],[-64.197755,-31.428385],[-64.197892,-31.428419],[-64.198513,-31.428558],[-64.199682,-31.428836],[-64.199805,-31.428859],[-64.200024,-31.428863],[-64.200619,-31.428809],[-64.200677,-31.428802],[-64.201252,-31.428756],[-64.201566,-31.428731],[-64.202205,-31.428681],[-64.202943,-31.428634],[-64.203081,-31.428627],[-64.203855,-31.428576],[-64.204057,-31.42855],[-64.204201,-31.428531],[-64.20444,-31.428475],[-64.206246,-31.428042],[-64.207277,-31.427785],[-64.207446,-31.427747],[-64.207553,-31.427731],[-64.207695,-31.427718],[-64.207804,-31.427721],[-64.207912,-31.427727],[-64.208038,-31.427736],[-64.208146,-31.427755],[-64.208279,-31.427796],[-64.208463,-31.427883],[-64.208649,-31.427984],[-64.209399,-31.428463],[-64.20959,-31.428582],[-64.209621,-31.428605],[-64.209938,-31.428838],[-64.210108,-31.428956],[-64.210247,-31.429055],[-64.210354,-31.429114],[-64.210393,-31.429125],[-64.210432,-31.429125],[-64.210468,-31.429122],[-64.210505,-31.429114],[-64.210534,-31.4291],[-64.210638,-31.429051],[-64.21071,-31.429016],[-64.210788,-31.428992],[-64.210899,-31.42898],[-64.21101,-31.428991],[-64.211114,-31.429025],[-64.211206,-31.42908],[-64.211278,-31.429152],[-64.211328,-31.429238],[-64.211431,-31.429282],[-64.211484,-31.429301],[-64.211547,-31.429317],[-64.211603,-31.429322],[-64.211669,-31.429324],[-64.211729,-31.429325],[-64.211785,-31.429328],[-64.211871,-31.429345],[-64.211969,-31.429369],[-64.212046,-31.429393],[-64.212118,-31.42942],[-64.212187,-31.42945],[-64.212261,-31.429483],[-64.212335,-31.429525],[-64.212404,-31.429569],[-64.212463,-31.429611],[-64.212511,-31.429646],[-64.212598,-31.429727],[-64.212671,-31.429801],[-64.212891,-31.430032],[-64.212974,-31.430101],[-64.21305,-31.430154],[-64.213112,-31.430192],[-64.213217,-31.430241],[-64.213308,-31.430279],[-64.21333,-31.430285],[-64.21342,-31.430312],[-64.213527,-31.430335],[-64.21356,-31.430339],[-64.213671,-31.430351],[-64.213876,-31.430359],[-64.213999,-31.430364],[-64.214114,-31.43037],[-64.214637,-31.430396],[-64.214774,-31.430406],[-64.214906,-31.430415],[-64.215567,-31.430461],[-64.216397,-31.430517],[-64.217392,-31.430585],[-64.218181,-31.430652],[-64.219052,-31.430715],[-64.219517,-31.430748],[-64.219399,-31.430304],[-64.219087,-31.42913],[-64.218923,-31.428512],[-64.218786,-31.427993],[-64.218674,-31.427571],[-64.218647,-31.427457],[-64.218287,-31.426102],[-64.219042,-31.425955],[-64.219769,-31.425813],[-64.220521,-31.425669],[-64.221259,-31.425526],[-64.221993,-31.425384],[-64.222765,-31.425231],[-64.223429,-31.425101],[-64.224202,-31.424956],[-64.224928,-31.424814],[-64.225367,-31.424727],[-64.226129,-31.424582],[-64.227356,-31.424347],[-64.228554,-31.424112],[-64.229427,-31.423937],[-64.230258,-31.42377],[-64.231099,-31.4236],[-64.23199,-31.423422],[-64.232846,-31.42325],[-64.233683,-31.423082],[-64.233824,-31.423139],[-64.233846,-31.423169],[-64.234196,-31.424407],[-64.234245,-31.424596],[-64.234373,-31.425106],[-64.234396,-31.425248],[-64.234463,-31.425224],[-64.234501,-31.425208],[-64.234538,-31.425185],[-64.234961,-31.424742],[-64.236371,-31.42339],[-64.237055,-31.422722],[-64.237129,-31.422665],[-64.237167,-31.422635],[-64.237318,-31.422522],[-64.237568,-31.422315],[-64.237617,-31.422259],[-64.238199,-31.421387],[-64.238569,-31.420821],[-64.238617,-31.420759],[-64.238663,-31.42072],[-64.238747,-31.420665],[-64.239421,-31.420303],[-64.23944,-31.420373],[-64.239476,-31.420498],[-64.239531,-31.420684],[-64.239566,-31.420797],[-64.239735,-31.421373],[-64.239753,-31.421432],[-64.239859,-31.421916],[-64.239994,-31.42245],[-64.240116,-31.42291],[-64.240139,-31.423002],[-64.240185,-31.423174],[-64.240783,-31.423179],[-64.24093,-31.423208],[-64.241757,-31.42322],[-64.241756,-31.42316],[-64.241749,-31.422332],[-64.240846,-31.422331],[-64.240782,-31.422331],[-64.240781,-31.422404],[-64.240069,-31.422445],[-64.239994,-31.42245],[-64.239859,-31.421916],[-64.239753,-31.421432],[-64.239735,-31.421373],[-64.239566,-31.420797],[-64.239531,-31.420684],[-64.239476,-31.420498],[-64.23944,-31.420373],[-64.239135,-31.420537],[-64.23876,-31.420743],[-64.238712,-31.420774],[-64.23869,-31.420799],[-64.238606,-31.420905],[-64.238538,-31.421003],[-64.238279,-31.421396],[-64.237692,-31.422292],[-64.237644,-31.42235],[-64.237591,-31.4224],[-64.237199,-31.422701],[-64.237133,-31.422759],[-64.237064,-31.422818],[-64.236431,-31.423435],[-64.236371,-31.42339],[-64.235894,-31.422996],[-64.235567,-31.422721],[-64.2346,-31.422901],[-64.234469,-31.422926],[-64.233683,-31.423082],[-64.232846,-31.42325],[-64.23199,-31.423422],[-64.231099,-31.4236],[-64.230258,-31.42377],[-64.229897,-31.422413],[-64.230436,-31.422311],[-64.230747,-31.422252],[-64.230382,-31.420885],[-64.229975,-31.419374],[-64.229694,-31.418329],[-64.229416,-31.417185],[-64.228947,-31.417276],[-64.228562,-31.41735],[-64.228859,-31.418494],[-64.229694,-31.418329],[-64.230628,-31.418147],[-64.231462,-31.417985],[-64.232289,-31.417824],[-64.232568,-31.418878],[-64.232694,-31.419349],[-64.23297,-31.420381],[-64.233285,-31.421556],[-64.233335,-31.421739],[-64.233414,-31.422036],[-64.233552,-31.422568],[-64.233619,-31.422831],[-64.233683,-31.423082],[-64.233824,-31.423139],[-64.233846,-31.423169],[-64.234196,-31.424407],[-64.234245,-31.424596],[-64.234373,-31.425106],[-64.234396,-31.425248],[-64.234393,-31.425356],[-64.234373,-31.425471],[-64.234366,-31.425535],[-64.234419,-31.425775],[-64.234483,-31.426068],[-64.235081,-31.425945],[-64.235152,-31.425921],[-64.235193,-31.425893],[-64.235533,-31.425584],[-64.235733,-31.425394],[-64.23598,-31.425598],[-64.236178,-31.425764],[-64.236452,-31.425982],[-64.236494,-31.426026],[-64.236582,-31.425986],[-64.237038,-31.425892],[-64.237099,-31.425804],[-64.237778,-31.425212],[-64.238169,-31.424871],[-64.237664,-31.424452],[-64.237223,-31.42409],[-64.236741,-31.423694],[-64.23659,-31.423572],[-64.236481,-31.423475],[-64.236431,-31.423435],[-64.236371,-31.42339],[-64.235894,-31.422996],[-64.235567,-31.422721],[-64.2346,-31.422901],[-64.234469,-31.422926],[-64.233683,-31.423082],[-64.233619,-31.422831],[-64.233552,-31.422568],[-64.233414,-31.422036],[-64.233335,-31.421739],[-64.233285,-31.421556],[-64.23297,-31.420381],[-64.232694,-31.419349],[-64.232568,-31.418878],[-64.232289,-31.417824],[-64.23215,-31.417315],[-64.232021,-31.416833],[-64.231979,-31.416677],[-64.231712,-31.415677],[-64.231693,-31.415609],[-64.231447,-31.414689],[-64.231257,-31.41398],[-64.23112,-31.413463],[-64.230994,-31.412993],[-64.230855,-31.413022],[-64.230763,-31.412674],[-64.230719,-31.412682],[-64.230588,-31.412707],[-64.230679,-31.413058],[-64.230855,-31.413022],[-64.230994,-31.412993],[-64.23112,-31.413463],[-64.231257,-31.41398],[-64.231447,-31.414689],[-64.231693,-31.415609],[-64.231712,-31.415677],[-64.231979,-31.416677],[-64.232021,-31.416833],[-64.23215,-31.417315],[-64.232289,-31.417824],[-64.232568,-31.418878],[-64.232694,-31.419349],[-64.23297,-31.420381],[-64.233285,-31.421556],[-64.233335,-31.421739],[-64.233414,-31.422036],[-64.233552,-31.422568],[-64.233619,-31.422831],[-64.233683,-31.423082],[-64.233824,-31.423139],[-64.233846,-31.423169],[-64.234196,-31.424407],[-64.234245,-31.424596],[-64.234373,-31.425106],[-64.234396,-31.425248],[-64.234463,-31.425224],[-64.234501,-31.425208],[-64.234538,-31.425185],[-64.234961,-31.424742],[-64.236371,-31.42339],[-64.237055,-31.422722],[-64.237129,-31.422665],[-64.237167,-31.422635],[-64.237318,-31.422522],[-64.237568,-31.422315],[-64.237617,-31.422259],[-64.238199,-31.421387],[-64.238569,-31.420821],[-64.238617,-31.420759],[-64.238663,-31.42072],[-64.238747,-31.420665],[-64.239421,-31.420303],[-64.24036,-31.419762],[-64.241186,-31.419297],[-64.241267,-31.419241],[-64.241333,-31.419184],[-64.241367,-31.419137],[-64.2414,-31.419072],[-64.241415,-31.419023],[-64.241424,-31.418962],[-64.241438,-31.417651],[-64.241447,-31.416819],[-64.241449,-31.416617],[-64.24146,-31.415465],[-64.241449,-31.41431],[-64.241441,-31.414216],[-64.241419,-31.414115],[-64.241399,-31.414064],[-64.241366,-31.41401],[-64.241178,-31.413721],[-64.241132,-31.413623],[-64.241111,-31.41354],[-64.241097,-31.413417],[-64.241084,-31.413212],[-64.24116,-31.413201],[-64.241179,-31.41347],[-64.241192,-31.413553],[-64.241211,-31.413619],[-64.241243,-31.41369],[-64.241454,-31.414001],[-64.241491,-31.414074],[-64.241509,-31.414135],[-64.241521,-31.41421],[-64.241526,-31.4143],[-64.241533,-31.414873],[-64.241526,-31.416612],[-64.241525,-31.417653],[-64.241496,-31.418979],[-64.24148,-31.41908],[-64.241462,-31.419133],[-64.241439,-31.419178],[-64.241402,-31.419225],[-64.241357,-31.419264],[-64.241245,-31.419341],[-64.240218,-31.419922],[-64.23944,-31.420373],[-64.239135,-31.420537],[-64.23876,-31.420743],[-64.238712,-31.420774],[-64.23869,-31.420799],[-64.238606,-31.420905],[-64.238538,-31.421003],[-64.238279,-31.421396],[-64.237692,-31.422292],[-64.237644,-31.42235],[-64.237591,-31.4224],[-64.237199,-31.422701],[-64.237133,-31.422759],[-64.237064,-31.422818],[-64.236431,-31.423435],[-64.235011,-31.424788],[-64.234961,-31.424742],[-64.234664,-31.424508],[-64.234245,-31.424596],[-64.234098,-31.424624],[-64.233901,-31.423893],[-64.2337,-31.423146],[-64.233683,-31.423082],[-64.232846,-31.42325],[-64.23199,-31.423422],[-64.231099,-31.4236],[-64.230258,-31.42377],[-64.229427,-31.423937],[-64.228554,-31.424112],[-64.227356,-31.424347],[-64.226129,-31.424582],[-64.225367,-31.424727],[-64.224928,-31.424814],[-64.224202,-31.424956],[-64.223429,-31.425101],[-64.222765,-31.425231],[-64.221993,-31.425384],[-64.221259,-31.425526],[-64.220521,-31.425669],[-64.219769,-31.425813],[-64.219042,-31.425955],[-64.218287,-31.426102],[-64.217649,-31.426226],[-64.217327,-31.426288],[-64.217017,-31.426348],[-64.216671,-31.426408],[-64.216315,-31.426484],[-64.2159,-31.426567],[-64.215662,-31.426611],[-64.215017,-31.426734],[-64.213216,-31.427048],[-64.213131,-31.427065],[-64.212522,-31.427176],[-64.212437,-31.427191],[-64.212407,-31.427196],[-64.212341,-31.427208],[-64.211808,-31.427305],[-64.211743,-31.427317],[-64.211663,-31.427331],[-64.211105,-31.427433],[-64.211043,-31.427444],[-64.210427,-31.42756],[-64.210334,-31.427578],[-64.210227,-31.427596],[-64.208754,-31.427879],[-64.208649,-31.427984],[-64.208463,-31.427883],[-64.208279,-31.427796],[-64.208146,-31.427755],[-64.208038,-31.427736],[-64.207912,-31.427727],[-64.207804,-31.427721],[-64.207695,-31.427718],[-64.207553,-31.427731],[-64.207446,-31.427747],[-64.207277,-31.427785],[-64.206246,-31.428042],[-64.20444,-31.428475],[-64.204201,-31.428531],[-64.204057,-31.42855],[-64.203855,-31.428576],[-64.203081,-31.428627],[-64.202943,-31.428634],[-64.202205,-31.428681],[-64.201566,-31.428731],[-64.201252,-31.428756],[-64.200677,-31.428802],[-64.200619,-31.428809],[-64.200024,-31.428863],[-64.199805,-31.428859],[-64.199682,-31.428836],[-64.198513,-31.428558],[-64.197892,-31.428419],[-64.197755,-31.428385],[-64.19764,-31.428351],[-64.197483,-31.428302],[-64.197381,-31.42827],[-64.197254,-31.428218],[-64.196639,-31.42792],[-64.195274,-31.427165],[-64.194872,-31.427],[-64.194509,-31.426863],[-64.194478,-31.426787],[-64.194469,-31.426766],[-64.194257,-31.426227],[-64.194255,-31.426221],[-64.194239,-31.42618],[-64.19422,-31.426133],[-64.194217,-31.426124],[-64.194076,-31.425803],[-64.194072,-31.425793],[-64.194044,-31.425728],[-64.194016,-31.425659],[-64.194012,-31.425649],[-64.193799,-31.425129],[-64.193794,-31.425118],[-64.193764,-31.425045],[-64.193737,-31.424979],[-64.193732,-31.424969],[-64.193303,-31.423935],[-64.1933,-31.423927],[-64.19328,-31.423877],[-64.193257,-31.423821],[-64.193252,-31.423808],[-64.193046,-31.423323],[-64.19301,-31.423229],[-64.192822,-31.422835],[-64.192817,-31.422826],[-64.192787,-31.422763],[-64.192763,-31.42271],[-64.192758,-31.422699],[-64.192698,-31.422564],[-64.192573,-31.422383],[-64.192455,-31.422273],[-64.192403,-31.42223],[-64.192332,-31.42218],[-64.191757,-31.421847],[-64.191748,-31.421842],[-64.191681,-31.421802],[-64.19163,-31.421772],[-64.191615,-31.421762],[-64.190716,-31.421211],[-64.190627,-31.421142],[-64.190514,-31.42103],[-64.190452,-31.420938],[-64.19044,-31.420922],[-64.190435,-31.420913],[-64.19041,-31.420877],[-64.19039,-31.420832],[-64.190385,-31.420821],[-64.190038,-31.420001],[-64.190031,-31.419983],[-64.190007,-31.419899],[-64.189976,-31.419802],[-64.189956,-31.419714],[-64.189951,-31.419695],[-64.189855,-31.419325],[-64.189817,-31.419043],[-64.18966,-31.418461],[-64.189595,-31.418267],[-64.189097,-31.417094],[-64.189089,-31.417076],[-64.189049,-31.417087],[-64.18777,-31.417441],[-64.187673,-31.417469],[-64.18769,-31.41751],[-64.188184,-31.418665],[-64.188568,-31.419564],[-64.188701,-31.419841],[-64.188713,-31.419861],[-64.188728,-31.419891],[-64.188735,-31.419927],[-64.188737,-31.419959],[-64.188733,-31.419976],[-64.188728,-31.419991],[-64.188709,-31.420032],[-64.188708,-31.420086],[-64.188709,-31.420103]]}}]}
